,AreaName,District,PinCode,Latitude,Longitude,1st most common venue,2nd most common venue,3rd most common venue,4th most common venue,5th most common venue
0,10 Dwarka Sector 9 Road,South West District,110077,28.57934,77.065129,Indian Restaurant,Food Truck,Event Space,Football Stadium,Food Court
1,10 Sector Dwarka,South West District,110075,28.590611,77.057569,Indian Restaurant,Fast Food Restaurant,Event Space,Football Stadium,Food Truck
2,102 Sector 21 Road,North West District,110086,28.712744,77.069416,Flea Market,Yoga Studio,Event Space,Football Stadium,Food Truck
3,103 Sector 21 Road,North West District,110086,28.711812,77.068569,Flea Market,Yoga Studio,Event Space,Football Stadium,Food Truck
4,103 Sector Road,North District,110042,28.735093,77.142806,Metro Station,Yoga Studio,Fried Chicken Joint,Football Stadium,Food Truck
5,109 Sector 21 Road,North West District,110086,28.711593,77.06527,ATM,Lake,Event Space,Football Stadium,Food Truck
6,119 Sector 6 Road,South West District,110059,28.602664,77.06306,Bus Station,Yoga Studio,Fabric Shop,Football Stadium,Food Truck
7,137 Sector 13 Main Road,South West District,110078,28.604477,77.034784,Diner,Fast Food Restaurant,Grocery Store,Fried Chicken Joint,Yoga Studio
8,22 Sector 13 Main Road,North West District,110086,28.721875,77.056835,IT Services,Yoga Studio,Event Space,Football Stadium,Food Truck
9,4 Dwarka Sector 9 Road,South West District,110077,28.57934,77.065129,Indian Restaurant,Food Truck,Event Space,Football Stadium,Food Court
10,4 Sector 4 Road,New Delhi District,110021,28.578168,77.170562,Pizza Place,Coffee Shop,Multiplex,South Indian Restaurant,Department Store
11,6 Sector 13 Main Road,North District,110085,28.716626,77.130988,Pizza Place,Food,Shopping Mall,Café,Dessert Shop
12,65 Sector Road,North District,110042,28.734693,77.142685,Metro Station,Yoga Studio,Fried Chicken Joint,Football Stadium,Food Truck
13,78 Sector 6 Road,North West District,110085,28.71291,77.11147,Shopping Mall,Department Store,Multiplex,Rest Area,Yoga Studio
14,89 Sector 22 Road,North West District,110086,28.718233,77.062444,Indian Restaurant,Bakery,Restaurant,French Restaurant,Food Truck
15,A Block Road,North West District,110083,28.700281,77.094663,Motorcycle Shop,Airport,Fabric Shop,French Restaurant,Football Stadium
16,A1 Block Paschim Vihar Delhi,West District,110063,28.669306,77.093265,Hotel,Indian Restaurant,Food Truck,Coffee Shop,Event Space
17,Abul Fazal Enclave,South East Delhi District,110025,28.54637,77.307199,Fast Food Restaurant,Hotel,Park,Yoga Studio,Entertainment Service
18,Abul Fazal Enclave Jamia Nagar,South East Delhi District,110025,28.555496,77.297802,Department Store,Arcade,Indian Restaurant,Playground,Kebab Restaurant
19,Abul Fazal Enclave Part 2 New Delhi,South East Delhi District,110025,28.549208,77.299861,Mobile Phone Shop,Park,Metro Station,Fast Food Restaurant,Yoga Studio
20,Aerocity,New Delhi District,110037,28.552015999999988,77.121662,Hotel,Indian Restaurant,Coffee Shop,Buffet,Shopping Mall
21,Ahinsa Vihar Road,North District,110085,28.712273,77.123604,Basketball Court,Café,Yoga Studio,Fried Chicken Joint,Football Stadium
22,Akshardham,East District,110092,28.612332,77.27833,History Museum,Hindu Temple,Yoga Studio,Entertainment Service,Food Truck
23,Akshardham Road,East District,110092,28.612332,77.27833,History Museum,Hindu Temple,Yoga Studio,Entertainment Service,Food Truck
24,Alaknanda,South East Delhi District,110019,28.527939,77.250154,BBQ Joint,Steakhouse,Food & Drink Shop,Market,New American Restaurant
25,Alaknanda Dda Flats Road,Shahdara District,110032,28.685531,77.276792,IT Services,Yoga Studio,Event Space,Football Stadium,Food Truck
26,Alaknanda Gangotri Enclave,South East Delhi District,110019,28.524453,77.252141,Steakhouse,Food & Drink Shop,Coffee Shop,Market,New American Restaurant
27,Ambica Vihar,West District,110087,28.665092,77.080354,Cosmetics Shop,Buffet,Asian Restaurant,Yoga Studio,Fabric Shop
28,Anand Lok,South District,110049,28.557200999999996,77.218116,Café,Other Great Outdoors,Hotel,Dessert Shop,Golf Course
29,Anand Niketan,New Delhi District,110021,28.579845,77.164595,Pizza Place,Café,Hotel,University,Food Truck
30,Antriksh Bhawan,New Delhi District,110001,28.628719999999998,77.222853,Café,Indian Restaurant,Bistro,Fast Food Restaurant,Beer Garden
31,Anupam Garden 10Th Lane,South District,110017,28.514134,77.208503,Hostel,Bar,Bakery,Yoga Studio,Fabric Shop
32,Arjun Nagar,South District,110029,28.561888000000003,77.19800199999999,Indian Restaurant,Coffee Shop,Restaurant,Mexican Restaurant,Jazz Club
33,Ashirwad,West District,110059,28.622128,77.058429,Pizza Place,Health & Beauty Service,Train Station,Astrologer,Mobile Phone Shop
34,Ashok Nagar,West District,110018,28.635974,77.101596,Fast Food Restaurant,Café,Ice Cream Shop,Yoga Studio,Football Stadium
35,Ashok Vihar,North West District,110052,28.6916,77.167153,Department Store,Dessert Shop,Snack Place,Basketball Court,Yoga Studio
36,Ashok Vihar Phase-1,North West District,110052,28.6916,77.167153,Department Store,Dessert Shop,Snack Place,Basketball Court,Yoga Studio
37,Ashram,South East Delhi District,110014,28.578917,77.259447,Moving Target,Garden Center,Bakery,Historic Site,Shopping Mall
38,Aya Nagar,South District,110047,28.475084,77.133169,Tourist Information Center,Yoga Studio,Event Space,Football Stadium,Food Truck
39,Azad Apartments,South District,110016,28.542398,77.20163,Event Space,Coffee Shop,Metro Station,Nightclub,Fabric Shop
40,B K Dutt Colony,South East Delhi District,110003,28.581666,77.215914,Airport,Football Stadium,Antique Shop,Bakery,Yoga Studio
41,B4 Block,North East District,110053,28.699916,77.266174,Weight Loss Center,Men's Store,Yoga Studio,Event Space,Football Stadium
42,Babarpur,Shahdara District,110032,28.688690999999995,77.279249,Motorcycle Shop,Park,Gift Shop,Fabric Shop,Football Stadium
43,Badarpur,South East Delhi District,110044,28.503489,77.300538,Train Station,Light Rail Station,Spa,Yoga Studio,Food Truck
44,Baldev Park East,East District,110051,28.647966,77.288968,Shopping Mall,Clothing Store,Yoga Studio,Event Space,Food Truck
45,Bali Nagar,West District,110015,28.653915,77.128918,Light Rail Station,Chinese Restaurant,Shoe Store,Shopping Mall,Ice Cream Shop
46,Baljeet Nagar,West District,110008,28.653044999999995,77.15715,Indian Restaurant,ATM,Café,Bus Stop,Light Rail Station
47,Bamnoli,South West District,110077,28.545682,77.031618,Bank,Auto Garage,Yoga Studio,Farm,French Restaurant
48,Bamnoli Dwarka Sector 28,South West District,110045,28.596492,77.075086,Nightlife Spot,Science Museum,Hobby Shop,Gym,Yoga Studio
49,Bamnoli Sector 28 Dwarka,South West District,110045,28.596492,77.075086,Nightlife Spot,Science Museum,Hobby Shop,Gym,Yoga Studio
50,Bamnoli Village Delhi,South West District,110077,28.545682,77.031618,Bank,Auto Garage,Yoga Studio,Farm,French Restaurant
51,Bank Colony,Shahdara District,110093,28.70331,77.311683,Print Shop,Tourist Information Center,Yoga Studio,Entertainment Service,Food Truck
52,Bank Enclave,East District,110031,28.642002,77.270898,Pharmacy,Chinese Restaurant,Entertainment Service,Food Truck,Food Court
53,Batla House New Delhi,South East Delhi District,110025,28.567446,77.286619,Indian Restaurant,Afghan Restaurant,Fabric Shop,French Restaurant,Football Stadium
54,Bees Sutri Harijan Basti,South District,110062,28.50522,77.197623,Lounge,Yoga Studio,Fried Chicken Joint,Football Stadium,Food Truck
55,Begampur Park,West District,110063,28.673665,77.094644,Indian Restaurant,Garden,Fried Chicken Joint,Football Stadium,Food Truck
56,Ber Sarai,New Delhi District,110016,28.549408,77.180933,Clothing Store,Shopping Mall,Airport Food Court,Hotel,Fast Food Restaurant
57,Bhagat Chandra Hospital,South West District,110045,28.593251999999996,77.081135,Indian Restaurant,Science Museum,Bank,French Restaurant,Food Truck
58,Bhagwati Garden,West District,110059,28.621219000000004,77.033078,ATM,Indian Restaurant,Light Rail Station,Fast Food Restaurant,Pizza Place
59,Bhagwati Vihar,West District,110059,28.612684,77.06236,ATM,Mobile Phone Shop,Indian Restaurant,Department Store,Farm
60,Bhalswa,North District,110042,28.742565,77.163174,Music Venue,Yoga Studio,Event Space,Food Truck,Food Court
61,Bhiwadi,,,28.63269399999996,77.21966000000003,Indian Restaurant,Café,Chinese Restaurant,Bar,Coffee Shop
62,Bindapur,South West District,110059,28.610709,77.068586,ATM,Bookstore,Department Store,Farm,French Restaurant
63,Block A,West District,110018,28.644128,77.10177799999998,Bowling Alley,Indian Restaurant,Fast Food Restaurant,Furniture / Home Store,Shopping Mall
64,Block A1 Chattarpur,South District,110074,28.494484,77.184047,Indian Restaurant,Pub,Restaurant,Resort,Food Truck
65,Block Ap Poorvi Pitampura,North West District,110034,28.703266,77.140724,Hotel,Coffee Shop,Spa,Bakery,Yoga Studio
66,Block Gh5,New Delhi District,110077,28.572861,77.071862,Burger Joint,Bar,Fast Food Restaurant,Chaat Place,Yoga Studio
67,Block J,West District,110015,28.654794,77.14639799999999,Café,Donut Shop,Fried Chicken Joint,Moving Target,Metro Station
68,Block J Rajouri Garden Extension,West District,110027,28.64008999999999,77.114278,Indian Restaurant,Gym / Fitness Center,Food Truck,Salon / Barbershop,Bike Shop
69,Block Jp Poorvi Pitampura,North West District,110034,28.702801999999995,77.14598,Bakery,Shopping Mall,Hotel,Coffee Shop,Spa
70,Block Ld Dakshini Pitampura,North West District,110034,28.69176,77.120353,Hotel,Bar,Yoga Studio,Fabric Shop,Football Stadium
71,Block Sd Delhi,North West District,110034,28.696568000000003,77.145981,Shopping Mall,Pizza Place,Playground,Snack Place,Arts & Crafts Store
72,Block Uu Uttari Pitampura,North West District,110034,28.705857,77.13941,Indian Restaurant,Hotel,Coffee Shop,Spa,Event Space
73,Budh Nagar,New Delhi District,110012,28.635105,77.142724,Sandwich Place,Multiplex,Arcade,Fast Food Restaurant,Yoga Studio
74,Budh Vihar,East District,110091,28.622737,77.313299,Convenience Store,Moving Target,Yoga Studio,Event Space,Food Truck
75,Burari,Central District,110084,28.755099,77.199031,Paper / Office Supplies Store,Yoga Studio,Entertainment Service,Food Truck,Food Court
76,Burari Garhi,Central District,110084,28.755099,77.199031,Paper / Office Supplies Store,Yoga Studio,Entertainment Service,Food Truck,Food Court
77,C Block Janakpuri Road,West District,110058,28.620621,77.093496,ATM,Spa,Clothing Store,Fast Food Restaurant,Event Space
78,C R Park,South East Delhi District,110019,28.544341,77.253064,Ice Cream Shop,Plaza,Market,Fast Food Restaurant,Food
79,Ca Apartments,West District,110063,28.671059000000007,77.102869,ATM,Sandwich Place,Market,Multicuisine Indian Restaurant,Department Store
80,Cd Block Dakshini Pitampura,North West District,110034,28.69176,77.120353,Hotel,Bar,Yoga Studio,Fabric Shop,Football Stadium
81,Central Secretariat,New Delhi District,110001,28.615966000000007,77.215843,Indian Restaurant,Cocktail Bar,Internet Cafe,Hotel,Bar
82,Chandni Chowk,Central District,110006,28.65515900000001,77.23364500000001,Indian Restaurant,Snack Place,Market,Dessert Shop,Hotel
83,Chandra Park,South West District,110078,28.610899,77.032639,Entertainment Service,Event Space,Football Stadium,Food Truck,Food Court
84,Chattarpur,South District,110030,28.48533,77.174925,Boutique,Yoga Studio,Fabric Shop,Football Stadium,Food Truck
85,Chattarpur Enclave,South District,110030,28.48533,77.174925,Boutique,Yoga Studio,Fabric Shop,Football Stadium,Food Truck
86,Chattarpur Enclave Phase 2,South District,110074,28.500421,77.187847,Café,Pub,Resort,Yoga Studio,Food Court
87,Chhattarpur Enclave Phase1,South District,110074,28.500326,77.191784,Karaoke Bar,Gym,Yoga Studio,Event Space,Food Truck
88,Chhawla,South West District,110071,28.561283,77.002434,ATM,Event Space,Football Stadium,Food Truck,Food Court
89,Chirag Delhi,South District,110017,28.538589,77.228025,Yoga Studio,Trail,Gym,Lounge,Event Space
90,Chirag Dilli,South District,110017,28.538589,77.228025,Yoga Studio,Trail,Gym,Lounge,Event Space
91,Chitra Vihar,East District,110092,28.642648000000005,77.28591900000002,BBQ Joint,Clothing Store,Dessert Shop,Shopping Mall,Bar
92,Chittaranjan Park,South East Delhi District,110019,28.538074999999996,77.24829899999999,Market,Pizza Place,Park,Coffee Shop,Café
93,Civil Lines,Central District,110054,28.680644,77.21888,Trail,Burger Joint,Candy Store,Yoga Studio,Event Space
94,Commercial Shop Indra Park,West District,110059,28.619936,77.068563,Hotel,Flea Market,Metro Station,Gym,Yoga Studio
95,Commercial Shop Karol Bagh,Central District,110005,28.652979,77.192229,Snack Place,Ice Cream Shop,Dessert Shop,Coffee Shop,Asian Restaurant
96,Commonwealth Games Village,East District,110092,28.615,77.273474,Athletics & Sports,History Museum,Event Space,Football Stadium,Food Truck
97,Connaught Place,New Delhi District,110001,28.632734999999972,77.21969600000008,Indian Restaurant,Café,Chinese Restaurant,Bar,Coffee Shop
98,Cr Park Main Road,South East Delhi District,110019,28.541606,77.247948,Market,Indian Restaurant,Dim Sum Restaurant,Fast Food Restaurant,Fabric Shop
99,D B Gupta Road,Shahdara District,110032,28.665973000000005,77.301846,Hotel,Indian Restaurant,Asian Restaurant,BBQ Joint,Café
100,D Block Lane,New Delhi District,110028,28.627061000000005,77.139963,Hotel,Pizza Place,Café,Indian Restaurant,Hotel Bar
101,D Block Vikaspuri,West District,110018,28.6336,77.0674,Indian Restaurant,Flea Market,Discount Store,Restaurant,Event Space
102,D3 Street,New Delhi District,110057,28.564080999999998,77.154981,Gym,Bar,Tea Room,Asian Restaurant,Speakeasy
103,Dabri,South West District,110045,28.6088,77.084165,Farmers Market,Yoga Studio,Event Space,Football Stadium,Food Truck
104,Daryaganj,Central District,110002,28.643996000000012,77.24107300000001,Indian Restaurant,Hotel,Hostel,Restaurant,Bank
105,Dcm Road,Central District,110007,28.662616,77.204021,Afghan Restaurant,Train Station,Yoga Studio,Event Space,Football Stadium
106,Dcm School Marg,West District,110008,28.649656,77.164196,Hotel,Indian Restaurant,Park,Electronics Store,Event Space
107,Dda Flat,South District,110017,28.52614999999998,77.22153699999997,Indian Restaurant,Bar,Clothing Store,Shopping Mall,Lounge
108,Dda Flats,New Delhi District,110058,28.606942,77.107619,Coffee Shop,Yoga Studio,Event Space,Football Stadium,Food Truck
109,Deepali,North West District,110034,28.694694,77.118494,Indian Restaurant,Hotel,Lake,Diner,Bus Station
110,Defence Colony,South East Delhi District,110024,28.573199,77.23279499999997,Italian Restaurant,Indian Restaurant,Bakery,Light Rail Station,Coffee Shop
111,Defence Colony Flyover,South East Delhi District,110024,28.573199,77.23279499999997,Italian Restaurant,Indian Restaurant,Bakery,Light Rail Station,Coffee Shop
112,Delhi,New Delhi District,,28.63269399999996,77.21966000000003,Indian Restaurant,Café,Chinese Restaurant,Bar,Coffee Shop
113,Delhi Apartments,West District,110078,28.603676,77.054309,Diner,Nightclub,Yoga Studio,Event Space,Food Truck
114,Delhi Cantonment,New Delhi District,,28.584669,77.133538,Restaurant,Yoga Studio,Event Space,Food Truck,Food Court
115,Delhi Cantt,New Delhi District,110010,28.596475,77.13247,Shopping Mall,Café,Indian Restaurant,Coffee Shop,Food Truck
116,Delhi Haridwar Road,Central District,110013,28.627874,77.252394,ATM,Nightclub,Event Space,Food Truck,Food Court
117,Deoli Gaon Nai Basti,South District,110062,28.505528,77.234013,ATM,Trail,Chinese Restaurant,Entertainment Service,Food Truck
118,Deoli Khanpur,South District,110062,28.509519,77.230424,Chinese Restaurant,ATM,Trail,Electronics Store,Event Space
119,Derawal Nagar,North District,110009,28.699642,77.190193,Pizza Place,Snack Place,Bakery,Shopping Mall,Event Space
120,Desh Bandhu Gupta Marg,Central District,110005,28.652156999999995,77.194249,Snack Place,Indian Restaurant,Food & Drink Shop,Asian Restaurant,Coffee Shop
121,Devli,South District,110062,28.503704,77.23216,ATM,Trail,Event Space,Football Stadium,Food Truck
122,Devli Export Enclave,South District,110062,28.503704,77.23216,ATM,Trail,Event Space,Football Stadium,Food Truck
123,Devli Extention,South District,110062,28.503704,77.23216,ATM,Trail,Event Space,Football Stadium,Food Truck
124,Devli Extention Deoli Gaon Nai Basti,South District,110062,28.505528,77.234013,ATM,Trail,Chinese Restaurant,Entertainment Service,Food Truck
125,Devli Nai Basti,South District,110062,28.505528,77.234013,ATM,Trail,Chinese Restaurant,Entertainment Service,Food Truck
126,Dhul Siras,South West District,110077,28.549419,77.03127,Bank,Yoga Studio,Frozen Yogurt Shop,French Restaurant,Football Stadium
127,Dilshad Colony,Shahdara District,110095,28.6884,77.326317,BBQ Joint,Yoga Studio,Frozen Yogurt Shop,French Restaurant,Football Stadium
128,Dilshad Colony New Simapuri,Shahdara District,110095,28.6884,77.326317,BBQ Joint,Yoga Studio,Frozen Yogurt Shop,French Restaurant,Football Stadium
129,Dilshad Garden,Shahdara District,110095,28.682157,77.319274,Indian Restaurant,Juice Bar,Market,Gym,Café
130,Dlf Ankur Vihar,South District,110049,28.552667999999993,77.21323099999998,Indian Restaurant,Bar,Furniture / Home Store,Coffee Shop,Mexican Restaurant
131,Dlf City Phase 3 Road,West District,110059,28.625796999999995,77.054035,Indian Restaurant,Health & Beauty Service,Train Station,Food Truck,Food Court
132,Dr Ambedkar Colony,South District,110030,28.50521,77.180133,Flea Market,Public Art,Arts & Crafts Store,Café,Yoga Studio
133,Duggal Colony,South District,110062,28.510371,77.230325,Indian Restaurant,Trail,Chinese Restaurant,Electronics Store,Event Space
134,Duggal Housing Complex,South District,110062,28.512933,77.228906,Indian Restaurant,Café,Plaza,Food Truck,Food Court
135,Dwarka 10 Sector,South West District,110075,28.590611,77.057569,Indian Restaurant,Fast Food Restaurant,Event Space,Football Stadium,Food Truck
136,Dwarka 11 Sector,South West District,110075,28.589461,77.050047,Department Store,Yoga Studio,Event Space,Football Stadium,Food Truck
137,Dwarka 29 Sector,South West District,110075,28.57616,77.050916,ATM,Event Space,Football Stadium,Food Truck,Food Court
138,Dwarka 8 Sector,South West District,110077,28.575746999999996,77.073874,Smoothie Shop,Food Truck,Park,Yoga Studio,Event Space
139,Dwarka Flyover,South West District,110075,28.592907,77.079503,Indian Restaurant,Hotel,Science Museum,Farm,Entertainment Service
140,Dwarka Mor,South West District,110059,28.618973,77.031514,Pizza Place,Light Rail Station,Fast Food Restaurant,Indian Restaurant,Hotel
141,Dwarka More,South West District,110059,28.618973,77.031514,Pizza Place,Light Rail Station,Fast Food Restaurant,Indian Restaurant,Hotel
142,Dwarka New Delhi 110075,South West District,110075,28.575835,77.043334,Gift Shop,Yoga Studio,Fried Chicken Joint,Football Stadium,Food Truck
143,Dwarka Road,South West District,110077,28.559388,77.042551,Hotel,Yoga Studio,Event Space,Football Stadium,Food Truck
144,Dwarka Sec 21,New Delhi District,110077,28.558233,77.0688,Bar,Yoga Studio,Frozen Yogurt Shop,French Restaurant,Football Stadium
145,Dwarka Sec 23,South West District,110077,28.566949,77.055135,Pizza Place,Italian Restaurant,Farmers Market,Shopping Mall,Department Store
146,Dwarka Sec 6,South West District,110075,28.59306,77.065686,Bakery,Yoga Studio,Frozen Yogurt Shop,French Restaurant,Football Stadium
147,Dwarka Sec3,New Delhi District,110077,28.56448,77.055066,Pizza Place,Park,Bed & Breakfast,Shopping Mall,Dessert Shop
148,Dwarka Sec6 Market,South West District,110075,28.590629,77.057679,Indian Restaurant,Fast Food Restaurant,Event Space,Football Stadium,Food Truck
149,Dwarka Sector 11 Pocket 3,South West District,110075,28.585082,77.047071,Ice Cream Shop,Light Rail Station,Spa,Indian Restaurant,Hotel
150,Dwarka Sector 11 Pocket 4,South West District,110075,28.587676,77.043674,Indian Restaurant,Market,French Restaurant,Football Stadium,Food Truck
151,Dwarka Sector 12,South West District,110078,28.594671999999996,77.042238,Indian Restaurant,Farmers Market,Market,Restaurant,Shopping Mall
152,Dwarka Sector 12 Pocket 4,South West District,110078,28.595862000000004,77.043795,Indian Restaurant,Restaurant,Farmers Market,Market,Shopping Mall
153,Dwarka Sector 12 Pocket 6,South West District,110078,28.592126000000004,77.044647,Indian Restaurant,Farmers Market,Market,Restaurant,Shopping Mall
154,Dwarka Sector 13,South West District,110078,28.599382999999996,77.03614600000002,Fried Chicken Joint,Electronics Store,Café,Light Rail Station,Asian Restaurant
155,Dwarka Sector 16 Main Road,South West District,110045,28.59608,77.075058,Nightlife Spot,Science Museum,Hobby Shop,Yoga Studio,Food Court
156,Dwarka Sector 17,South West District,110078,28.591823,77.028044,ATM,Event Space,Football Stadium,Food Truck,Food Court
157,Dwarka Sector 19,South West District,110075,28.576972000000005,77.053127,Hotel,Shopping Mall,Electronics Store,Asian Restaurant,Flea Market
158,Dwarka Sector 23 Pocket 1,New Delhi District,110077,28.56448,77.055066,Pizza Place,Park,Bed & Breakfast,Shopping Mall,Dessert Shop
159,Dwarka Sector 25,South West District,110077,28.555591,77.054558,Light Rail Station,Farm,Business Service,Shopping Mall,Dim Sum Restaurant
160,Dwarka Sector 7,South West District,110075,28.593441,77.072453,Hobby Shop,Nightlife Spot,Yoga Studio,Event Space,Food Truck
161,Dwarka Sector 9,South West District,110077,28.57934,77.065129,Indian Restaurant,Food Truck,Event Space,Football Stadium,Food Court
162,Dwarka Sector 9 Road,South West District,110077,28.57934,77.065129,Indian Restaurant,Food Truck,Event Space,Football Stadium,Food Court
163,Dwarka Sector3,New Delhi District,110001,28.636281999999998,77.207186,Indian Restaurant,Light Rail Station,Fabric Shop,Fast Food Restaurant,Snack Place
164,Dwarka Sub City,South West District,110045,28.597807,77.073263,Ice Cream Shop,Hobby Shop,Chinese Restaurant,Nightlife Spot,Event Space
165,E 2 Vasant Kunj,South District,110070,28.51498,77.153245,Hostel,Yoga Studio,Event Space,Football Stadium,Food Truck
166,E Block Preet Vihar,East District,110092,28.638923000000002,77.29774299999998,Yoga Studio,BBQ Joint,Light Rail Station,Fast Food Restaurant,Shop & Service
167,East Delhi,East District,,28.63592899999999,77.285827,Gift Shop,Gym,Office,Shopping Mall,Multiplex
168,East Of Kailash,South East Delhi District,110065,28.555345999999997,77.247987,Indie Movie Theater,Hot Dog Joint,Coffee Shop,Bar,Fast Food Restaurant
169,East Patel Nagar,West District,110005,28.647715,77.17400099999999,Pizza Place,Donut Shop,Chinese Restaurant,Gym,Coffee Shop
170,Epdp Colony,South East Delhi District,110003,28.583716999999996,77.22449600000002,Indian Restaurant,Café,English Restaurant,Sandwich Place,Shopping Mall
171,Experion Heartsong,New Delhi District,110010,28.596475,77.13247,Shopping Mall,Café,Indian Restaurant,Coffee Shop,Food Truck
172,Fateh Nagar,West District,110018,28.63085999999999,77.101612,Indian Restaurant,Indian Sweet Shop,Punjabi Restaurant,Fried Chicken Joint,Food Court
173,Fatehpurberi,New Delhi District,,28.63269399999996,77.21966000000003,Indian Restaurant,Café,Chinese Restaurant,Bar,Coffee Shop
174,Ferozshah Road,New Delhi District,110010,28.597113,77.132191,Shopping Mall,Café,Indian Restaurant,Coffee Shop,Food Truck
175,Freedom Fighter Enclave,South District,110068,28.509987,77.19899,Pub,Asian Restaurant,Italian Restaurant,Mediterranean Restaurant,Yoga Studio
176,Freedom Fighter Enclave Road,South District,110062,28.508718,77.201279,Asian Restaurant,Yoga Studio,Fabric Shop,French Restaurant,Football Stadium
177,Freedom Fighter Vihar,South District,110068,28.510955,77.202062,Pub,Bakery,Asian Restaurant,Mediterranean Restaurant,Yoga Studio
178,Freedom Fighters Enclave,South District,110068,28.510955,77.202062,Pub,Bakery,Asian Restaurant,Mediterranean Restaurant,Yoga Studio
179,Gagan Vihar,East District,110051,28.644682,77.292236,Ice Cream Shop,Arcade,Fast Food Restaurant,BBQ Joint,Light Rail Station
180,Ganesh Nagar,West District,110018,28.635497,77.089232,Clothing Store,Light Rail Station,Metro Station,Event Space,Football Stadium
181,Gautam Nagar,South District,110049,28.561382,77.211631,Park,Bar,Yoga Studio,Fabric Shop,Football Stadium
182,Gazipur,East District,110096,28.633403,77.318143,Department Store,Hotel,Yoga Studio,Event Space,Football Stadium
183,Geeta Colony,Shahdara District,110031,28.652544,77.275947,Pizza Place,Bakery,Fried Chicken Joint,Football Stadium,Food Truck
184,Geetanjali Enclave,South District,110017,28.530190999999995,77.201991,Café,Coffee Shop,Juice Bar,Metro Station,Yoga Studio
185,Gharoli Dairy Farm,East District,110096,28.612945,77.332072,Gift Shop,Music Venue,Yoga Studio,French Restaurant,Food Truck
186,Ghitorni Village South Delhi,New Delhi District,110030,28.492572,77.145379,Indian Restaurant,Hotel,Sporting Goods Shop,Furniture / Home Store,Sandwich Place
187,Godavari Apartments,South East Delhi District,110019,28.526516000000004,77.253432,Steakhouse,Food & Drink Shop,Coffee Shop,Market,New American Restaurant
188,Golf Links,New Delhi District,110003,28.597261,77.231184,Boutique,Mexican Restaurant,Golf Course,Fast Food Restaurant,French Restaurant
189,Govind Puri,South East Delhi District,110019,28.535546,77.264039,Outlet Mall,Clothing Store,Burger Joint,Farmers Market,Yoga Studio
190,Govindpura,East District,110051,28.645781,77.284887,Shopping Mall,Clothing Store,BBQ Joint,Fabric Shop,Football Stadium
191,Govindpura Old,East District,110051,28.645439,77.285121,Shopping Mall,Clothing Store,BBQ Joint,Fabric Shop,Football Stadium
192,Govindpuri,South East Delhi District,110019,28.535546,77.264039,Outlet Mall,Clothing Store,Burger Joint,Farmers Market,Yoga Studio
193,Govindpuri Extension New Delhi,South East Delhi District,110019,28.534117,77.258786,Dessert Shop,Convenience Store,Hotel,Bank,Gym
194,Grand Trunk Road,Shahdara District,110031,28.670169,77.26454,Shopping Mall,Platform,Train Station,Entertainment Service,Food Truck
195,Greater Kailash,South East Delhi District,110048,28.55346,77.24258099999999,Bar,Indian Restaurant,Italian Restaurant,Flea Market,Market
196,Greater Kailash 1,South East Delhi District,110048,28.548714000000007,77.23610200000002,Indian Restaurant,Hotel,Coffee Shop,Café,Bistro
197,Greater Kailash Enclave Ii,South East Delhi District,110048,28.539217000000004,77.238547,Ice Cream Shop,Café,Restaurant,Park,Sandwich Place
198,Greater Kailash Ii,South East Delhi District,110048,28.53488300000001,77.241845,Asian Restaurant,Indian Restaurant,Restaurant,Chinese Restaurant,Italian Restaurant
199,Green Park,South District,110016,28.55685600000001,77.203604,Indian Restaurant,Coffee Shop,Chinese Restaurant,Hotel,Pizza Place
200,Gt Road,North District,110033,28.692501,77.190382,Weight Loss Center,Yoga Studio,Event Space,Football Stadium,Food Truck
201,Gujranwala Town,West District,110018,28.638975,77.08086,Indian Restaurant,Café,Ice Cream Shop,Fast Food Restaurant,Football Stadium
202,Gulab Bagh,East District,110092,28.636365000000005,77.285144,Gift Shop,Shopping Mall,Liquor Store,Mediterranean Restaurant,Arcade
203,Gulmohar Enclave,South District,110049,28.558253999999998,77.21039199999998,Indian Restaurant,Coffee Shop,Chinese Restaurant,Bar,Hotel
204,Gulmohar Park,South District,110049,28.556303000000007,77.213521,Theater,Indian Restaurant,Music Venue,Park,Spanish Restaurant
205,Guru Angad Nagar,South East Delhi District,110019,28.549345000000006,77.25394600000003,Coffee Shop,Food,Fast Food Restaurant,Convenience Store,Donut Shop
206,Guru Ram Das Nagar,North District,110007,28.687432,77.198608,Arcade,Bakery,Cheese Shop,Yoga Studio,Farm
207,Gurudwara Road,South East Delhi District,110019,28.540583,77.252121,Market,Indian Restaurant,Coffee Shop,Fish Market,Ice Cream Shop
208,Hailey Road,New Delhi District,110001,28.624777999999996,77.224403,Indian Restaurant,Coffee Shop,Restaurant,Historic Site,Lounge
209,Hari Nagar,West District,110064,28.624511,77.111014,Café,Snack Place,Arcade,Yoga Studio,Football Stadium
210,Hastsal,West District,110059,28.636428999999996,77.060879,Café,Pizza Place,Park,Fast Food Restaurant,Market
211,Hauz Khas,South District,110016,28.549647999999998,77.207748,Indian Restaurant,Other Nightlife,Market,Karaoke Bar,Burger Joint
212,Hauz Khas Enclave,South District,110016,28.548088,77.20364,Dessert Shop,Coffee Shop,Other Nightlife,Burger Joint,Market
213,Hauz Rani,South District,110017,28.528977,77.2094,Coffee Shop,Athletics & Sports,Metro Station,Event Space,Football Stadium
214,Hill View,New Delhi District,110010,28.575996,77.123512,Cricket Ground,Playground,History Museum,Australian Restaurant,Food Court
215,I P Extension Patparganj,East District,110091,28.612117,77.291734,Indian Restaurant,Pharmacy,Department Store,Juice Bar,Event Space
216,Igi Airport,New Delhi District,110037,28.555013000000002,77.08437000000002,Coffee Shop,Airport Lounge,Airport Service,Café,Smoke Shop
217,Inderpuri,New Delhi District,110012,28.631922,77.147498,Stables,Yoga Studio,Fried Chicken Joint,Football Stadium,Food Truck
218,Indraprastha,New Delhi District,110013,28.61453,77.251556,Tea Room,Train Station,Entertainment Service,Football Stadium,Food Truck
219,Ip Extension,East District,110092,28.629336999999996,77.302631,Pizza Place,Café,Hotel,Dessert Shop,Food
220,Ishwar Nagar,South East Delhi District,110065,28.559345000000004,77.26795599999997,Café,Hotel,Middle Eastern Restaurant,Fast Food Restaurant,Indian Restaurant
221,Jagdamba Vihar,South West District,110046,28.60105,77.095706,North Indian Restaurant,Entertainment Service,Food Truck,Food Court,Food & Drink Shop
222,Jagriti Enclave Shreshtha Vihar,Shahdara District,110092,28.655879,77.316371,ATM,Italian Restaurant,Café,Indian Restaurant,Hotel Bar
223,Jain Colony,Central District,110007,28.685289,77.194123,Playground,Yoga Studio,Entertainment Service,Food Truck,Food Court
224,Jamia Nagar,South East Delhi District,110025,28.560838999999998,77.281419,ATM,Asian Restaurant,Chinese Restaurant,Athletics & Sports,Pizza Place
225,Jammu Delhi Road,Central District,110013,28.627874,77.252394,ATM,Nightclub,Event Space,Food Truck,Food Court
226,Janakpuri,West District,110058,28.621667,77.088521,ATM,Café,Ice Cream Shop,Gym / Fitness Center,Food Truck
227,Janakpuri B1 Market,West District,110058,28.628996,77.091333,Café,Department Store,Farmers Market,Gym,Fabric Shop
228,Jangpura,South East Delhi District,110014,28.585417,77.246022,Bed & Breakfast,Sandwich Place,Flea Market,Yoga Studio,French Restaurant
229,Jangpura Extension,South East Delhi District,110014,28.581218999999994,77.24240299999998,Sandwich Place,Fast Food Restaurant,Chinese Restaurant,Indian Restaurant,Hotel
230,Jasola,South East Delhi District,110025,28.54253599999999,77.29805899999998,Indian Restaurant,Pizza Place,Soccer Stadium,Market,Bakery
231,Jasola Sector 8,South East Delhi District,110025,28.544643,77.296658,Indian Restaurant,Department Store,Event Space,Football Stadium,Food Truck
232,Jasola Vihar Sector 8 Road,South East Delhi District,110025,28.544643,77.296658,Indian Restaurant,Department Store,Event Space,Football Stadium,Food Truck
233,Jawahar Park,South District,110062,28.507696,77.23062,Chinese Restaurant,ATM,Trail,Electronics Store,Event Space
234,Jor Bagh,South East Delhi District,110003,28.588308,77.21383000000002,Hotel,Bookstore,Racetrack,Historic Site,Metro Station
235,Kailash Colony,South District,110048,28.554173,77.24069000000001,Hotel,Department Store,Light Rail Station,Bar,Dessert Shop
236,Kailash Hills,South East Delhi District,110065,28.554787,77.24676899999999,Indie Movie Theater,Hot Dog Joint,Coffee Shop,Fast Food Restaurant,Bar
237,Kalindi Kunj Road,South East Delhi District,110076,28.543383,77.310302,Fast Food Restaurant,Hotel,Light Rail Station,Yoga Studio,Entertainment Service
238,Kalkaji,South East Delhi District,110019,28.541421000000007,77.255747,Fast Food Restaurant,Indian Restaurant,Coffee Shop,Sandwich Place,Market
239,Kalkaji Extension,South East Delhi District,110019,28.541421000000007,77.255747,Fast Food Restaurant,Indian Restaurant,Coffee Shop,Sandwich Place,Market
240,Kalkaji Flyover,South East Delhi District,110019,28.541421000000007,77.255747,Fast Food Restaurant,Indian Restaurant,Coffee Shop,Sandwich Place,Market
241,Kalkaji Govindpuri,South East Delhi District,110019,28.535546,77.264039,Outlet Mall,Clothing Store,Burger Joint,Farmers Market,Yoga Studio
242,Kalkaji Main,South East Delhi District,110019,28.541421000000007,77.255747,Fast Food Restaurant,Indian Restaurant,Coffee Shop,Sandwich Place,Market
243,Kalu Sarai,South District,110016,28.539458,77.199566,Indian Restaurant,Café,Restaurant,Pub,Record Shop
244,Kalyan Vihar,North District,110009,28.691047,77.19743800000002,Pet Store,Department Store,Food Truck,Bakery,Asian Restaurant
245,Kamla Nagar,Central District,110007,28.682824999999994,77.20362700000001,Coffee Shop,Café,Breakfast Spot,Fast Food Restaurant,Chinese Restaurant
246,Kanjhawla,New Delhi District,,28.63269399999996,77.21966000000003,Indian Restaurant,Café,Chinese Restaurant,Bar,Coffee Shop
247,Kapas Hera Estate,New Delhi District,110021,28.594804000000007,77.19813699999999,Nightclub,Indian Restaurant,Hotel,Smoke Shop,Bus Station
248,Kapas Hera Extension,New Delhi District,110021,28.594804000000007,77.19813699999999,Nightclub,Indian Restaurant,Hotel,Smoke Shop,Bus Station
249,Kapashera,New Delhi District,110097,28.527669,77.076869,Pizza Place,Entertainment Service,Food Truck,Food Court,Food & Drink Shop
250,Karampura,West District,110015,28.664786,77.147423,Indian Restaurant,Vegetarian / Vegan Restaurant,Moving Target,Italian Restaurant,Fabric Shop
251,Karampura West,West District,110015,28.664786,77.147423,Indian Restaurant,Vegetarian / Vegan Restaurant,Moving Target,Italian Restaurant,Fabric Shop
252,Karawal Nagar,North East District,110094,28.725454,77.268624,Motorcycle Shop,Shopping Mall,Cricket Ground,Football Stadium,Food Truck
253,Karkardooma,Shahdara District,110092,28.649875,77.302592,Indian Restaurant,Food Truck,Plaza,Entertainment Service,Food Court
254,Karol Bagh,Central District,110005,28.652979,77.192229,Snack Place,Ice Cream Shop,Dessert Shop,Coffee Shop,Asian Restaurant
255,Katwaria Sarai,South District,110016,28.539874,77.18800799999998,Indian Restaurant,Modern European Restaurant,Hotel,Restaurant,Moroccan Restaurant
256,Kaushambi,,,28.63269399999996,77.21966000000003,Indian Restaurant,Café,Chinese Restaurant,Bar,Coffee Shop
257,Keshavpuram,North West District,110035,28.688039,77.16071,Women's Store,Department Store,Convenience Store,Basketball Court,Fabric Shop
258,Kg 2 Road,West District,110018,28.635922,77.078407,Pizza Place,Fast Food Restaurant,Ice Cream Shop,Food Truck,Women's Store
259,Khanpur,South District,110062,28.509519,77.230424,Chinese Restaurant,ATM,Trail,Electronics Store,Event Space
260,Khanpur Colony,South District,110062,28.509519,77.230424,Chinese Restaurant,ATM,Trail,Electronics Store,Event Space
261,Khanpur Deoli,South District,110062,28.509519,77.230424,Chinese Restaurant,ATM,Trail,Electronics Store,Event Space
262,Khanpur Krishna Park,South District,110062,28.509358,77.232441,Chinese Restaurant,ATM,Trail,Electronics Store,Event Space
263,Khari Baoli,Central District,110006,28.657403999999993,77.222944,Dessert Shop,Snack Place,Indian Restaurant,Miscellaneous Shop,Food & Drink Shop
264,Khari Baoli Road,Central District,110006,28.657648,77.216728,Breakfast Spot,Miscellaneous Shop,Burger Joint,Market,Yoga Studio
265,Khirki Extension,South District,110017,28.532780999999996,77.217764,Indian Restaurant,Shopping Mall,Burger Joint,Clothing Store,Chinese Restaurant
266,Khushi Ram Park Param Puri,West District,110059,28.616921,77.051712,Indian Restaurant,Event Space,Football Stadium,Food Truck,Food Court
267,Kiran Garden,West District,110059,28.619453000000004,77.046439,Bookstore,Café,Pet Store,Football Stadium,Food Truck
268,Kirti Nagar,West District,110015,28.65052,77.142426,Furniture / Home Store,Park,BBQ Joint,Yoga Studio,Fabric Shop
269,Kishangarh Mehrauli Road,South District,110030,28.521341,77.179337,Thai Restaurant,Market,Restaurant,Yoga Studio,Event Space
270,Kishangarh Village New Delhi,New Delhi District,,28.63269399999996,77.21966000000003,Indian Restaurant,Café,Chinese Restaurant,Bar,Coffee Shop
271,Kondali Main,East District,110096,28.614001,77.324394,Restaurant,Yoga Studio,Event Space,Food Truck,Food Court
272,Kota House Entrance,New Delhi District,110011,28.606087,77.225119,Indian Restaurant,Hotel Bar,Japanese Restaurant,Restaurant,Snack Place
273,Kotla Mubarakpur,South East Delhi District,110003,28.573136,77.223323,Pizza Place,Indian Restaurant,Shoe Store,Coffee Shop,Entertainment Service
274,Krishan Kunj,North East District,110053,28.700958,77.278916,Pizza Place,Bank,Fried Chicken Joint,Football Stadium,Food Truck
275,Krishna Nagar,Shahdara District,110051,28.65846,77.283538,Pizza Place,Fast Food Restaurant,Gym,French Restaurant,Food Truck
276,Krishna Park Jawahar Park,South District,110062,28.509358,77.232441,Chinese Restaurant,ATM,Trail,Electronics Store,Event Space
277,Kundli,North West District,110034,28.69801,77.120157,Fast Food Restaurant,Pizza Place,Shopping Mall,Restaurant,Cosmetics Shop
278,L Zone Delhi,West District,110027,28.636126,77.112166,Gym,Sculpture Garden,Park,Stadium,Yoga Studio
279,L Zone Dwarka Phase 2 Delhi,South West District,110078,28.613626,77.019343,Metro Station,Yoga Studio,Fried Chicken Joint,Football Stadium,Food Truck
280,Lajpat Nagar,South East Delhi District,110024,28.576062000000004,77.241561,Indian Restaurant,Cocktail Bar,Fast Food Restaurant,Market,Asian Restaurant
281,Lajpat Nagar Ii,South East Delhi District,110024,28.569780999999992,77.242302,Café,Indian Restaurant,Market,Fast Food Restaurant,Donut Shop
282,Lajpat Nagar Iii,South East Delhi District,110024,28.567256000000004,77.23910700000005,Indian Restaurant,Fast Food Restaurant,Market,Donut Shop,Bank
283,Lajpat Nagar Iv,South East Delhi District,110024,28.56298,77.240746,Indian Restaurant,Market,Café,Fast Food Restaurant,Bank
284,Lalita Park,East District,110092,28.630145,77.274076,IT Services,Mobile Phone Shop,Light Rail Station,Train Station,Shopping Mall
285,Lalita Park Foot Over Bridge,East District,110092,28.631705,77.270747,IT Services,Arts & Crafts Store,Hostel,Yoga Studio,Flea Market
286,Laxmi Nagar,East District,110092,28.635202,77.283208,Gift Shop,Shopping Mall,Liquor Store,Mediterranean Restaurant,Arcade
287,Lig Flats,West District,110059,28.634795,77.06070999999999,Café,Pizza Place,Park,Fast Food Restaurant,Market
288,Link Road Ip Extension,East District,110092,28.629336999999996,77.302631,Pizza Place,Café,Hotel,Dessert Shop,Food
289,Lodhi Colony,South East Delhi District,110003,28.583716999999996,77.22449600000002,Indian Restaurant,Café,English Restaurant,Sandwich Place,Shopping Mall
290,Lodhi Road Quarters,South East Delhi District,110003,28.587623000000004,77.22837600000001,Performing Arts Venue,Theater,Pedestrian Plaza,Flea Market,Restaurant
291,Loni,Shahdara District,110032,28.687996,77.291986,ATM,Clothing Store,Men's Store,Indian Restaurant,Pizza Place
292,Madangir,South District,110062,28.519654,77.228583,Café,Plaza,Flea Market,Pharmacy,Yoga Studio
293,Madhu Vihar,South West District,110059,28.601681,77.059258,Bus Station,Kids Store,Yoga Studio,Fabric Shop,Football Stadium
294,Maharani Bagh,South East Delhi District,110065,28.573232999999995,77.26529600000002,Hotel,Café,Sculpture Garden,Neighborhood,Gym
295,Mahaveer Nagar Kotla Mubarakpur,South East Delhi District,110003,28.575093,77.22603400000001,Indian Restaurant,Italian Restaurant,Bakery,Café,Restaurant
296,Mahavir Enclave,South West District,110045,28.596709,77.08236,Department Store,Indian Restaurant,Science Museum,Bank,Fast Food Restaurant
297,Mahavir Enclave Bengali Colony,South West District,110045,28.596709,77.08236,Department Store,Indian Restaurant,Science Museum,Bank,Fast Food Restaurant
298,Mahipalpur,New Delhi District,110037,28.545272000000004,77.129485,Hotel,Indian Restaurant,Bed & Breakfast,Road,Business Service
299,Mahipalpur Extension,New Delhi District,110037,28.545272000000004,77.129485,Hotel,Indian Restaurant,Bed & Breakfast,Road,Business Service
300,Mahipalpur Rangpuri Road,New Delhi District,110037,28.540648999999995,77.119477,Indian Restaurant,Hotel,American Restaurant,Thai Restaurant,Spa
301,Mahrauli,South East Delhi District,110044,28.500353,77.301768,Light Rail Station,Yoga Studio,Event Space,Football Stadium,Food Truck
302,Main Rajapuri Road,South West District,110059,28.603495,77.056424,Kids Store,Nightclub,Yoga Studio,Fabric Shop,Football Stadium
303,Malka Ganj,Central District,110007,28.675838,77.205485,Pizza Place,Grocery Store,Flea Market,Sandwich Place,Indian Restaurant
304,Malviya Nagar,South District,110017,28.534883,77.210245,Coffee Shop,Pizza Place,Chinese Restaurant,Sandwich Place,Miscellaneous Shop
305,Mandakini Enclave,South East Delhi District,110019,28.529337,77.248602,BBQ Joint,Food & Drink Shop,Thai Restaurant,Gym,New American Restaurant
306,Mandawali,East District,110092,28.630237,77.291411,Business Service,Fried Chicken Joint,Convenience Store,Spa,Fabric Shop
307,Manglapuri,South West District,110045,28.588744,77.087511,Intersection,Museum,Bar,Men's Store,Yoga Studio
308,Manglapuri Village,South West District,110045,28.588744,77.087511,Intersection,Museum,Bar,Men's Store,Yoga Studio
309,Mansa Ram Park,West District,110059,28.617651,77.039019,ATM,IT Services,Pet Store,Entertainment Service,Food Truck
310,Mansa Ram Park Park Path,West District,110059,28.617651,77.039019,ATM,IT Services,Pet Store,Entertainment Service,Food Truck
311,Mansarovar Garden,West District,110015,28.642099,77.133346,Furniture / Home Store,Hotel,Yoga Studio,Event Space,Food Truck
312,Mansarovar Park,Shahdara District,110032,28.681864,77.299151,Electronics Store,Yoga Studio,Event Space,Football Stadium,Food Truck
313,Mansarover Garden,West District,110015,28.642099,77.133346,Furniture / Home Store,Hotel,Yoga Studio,Event Space,Food Truck
314,Masjid Moth,South East Delhi District,110048,28.541008,77.234227,Pizza Place,Italian Restaurant,Coffee Shop,Café,Event Space
315,Masjid Moth Phase 2,South East Delhi District,110048,28.540533,77.233534,Pizza Place,Italian Restaurant,Coffee Shop,Café,Event Space
316,Masjid Moth Village,South District,110049,28.561161,77.21718699999998,Café,Metro Station,Shopping Mall,Park,Market
317,Masoodpur,New Delhi District,110070,28.526909999999997,77.154162,Pizza Place,Dessert Shop,Fast Food Restaurant,Spa,Café
318,Mathura Road,New Delhi District,110001,28.612237999999998,77.24003500000002,Pool,Hockey Arena,Café,Cafeteria,Historic Site
319,Mathura Road Sarita Vihar,South East Delhi District,110076,28.515011,77.296958,Indian Sweet Shop,Clothing Store,Shoe Store,Light Rail Station,Dim Sum Restaurant
320,Maya Enclave,West District,110064,28.618855,77.108939,Snack Place,Yoga Studio,Fried Chicken Joint,Football Stadium,Food Truck
321,Mayur Vihar,East District,110091,28.607676,77.30118800000001,Indian Restaurant,Athletics & Sports,Flower Shop,Gym / Fitness Center,Women's Store
322,Mayur Vihar I,East District,110091,28.598894,77.294371,Pizza Place,Department Store,Market,Shopping Mall,Deli / Bodega
323,Mayur Vihar Iii,East District,110096,28.610627000000004,77.336514,Food Truck,Diner,Music Venue,Yoga Studio,Event Space
324,Mayur Vihar Phase 1,East District,110091,28.598894,77.294371,Pizza Place,Department Store,Market,Shopping Mall,Deli / Bodega
325,Mayur Vihar Phase 2,East District,110091,28.618247,77.29783399999998,Wings Joint,Garden,Sandwich Place,Café,Bank
326,Mayur Vihar Phase 3,East District,110096,28.610627000000004,77.336514,Food Truck,Diner,Music Venue,Yoga Studio,Event Space
327,Mayur Vihar Pocket F,Shahdara District,110095,28.680359,77.317982,Indian Restaurant,Diner,Market,Ice Cream Shop,Dessert Shop
328,Meenakshi Garden,West District,110018,28.639439000000007,77.10362200000003,Multiplex,Coffee Shop,Fast Food Restaurant,Shopping Mall,Donut Shop
329,Meera Bagh,West District,110087,28.658887000000004,77.089295,Café,Convenience Store,Tourist Information Center,Yoga Studio,Food Truck
330,Mehrauli,South District,110030,28.521341,77.179337,Thai Restaurant,Market,Restaurant,Yoga Studio,Event Space
331,Mehrauli Village,South District,110030,28.521341,77.179337,Thai Restaurant,Market,Restaurant,Yoga Studio,Event Space
332,Mianwali Nagar Peera Garhi,West District,110056,28.679509,77.096072,Convenience Store,Indian Restaurant,Train Station,Restaurant,Event Space
333,Mirpur Turk,North East District,110094,28.706748,77.265361,Business Service,Yoga Studio,Fabric Shop,Football Stadium,Food Truck
334,Model Town,North District,,28.730261,77.171765,Electronics Store,Yoga Studio,Event Space,Football Stadium,Food Truck
335,Moti Bagh South,New Delhi District,110021,28.58055,77.1726,Shopping Plaza,Park,Asian Restaurant,Arcade,South Indian Restaurant
336,Moti Nagar,West District,110015,28.662193,77.13917,Flea Market,Restaurant,Yoga Studio,Event Space,Food Truck
337,Mount Kailash Apartment,South East Delhi District,110065,28.553428000000004,77.245946,Bar,Arcade,Italian Restaurant,Bakery,Hot Dog Joint
338,Mundka,West District,110041,28.681933,77.030648,Mobile Phone Shop,Train Station,Business Service,Yoga Studio,Fabric Shop
339,Munirka,New Delhi District,110067,28.553441,77.174918,Indian Restaurant,Playground,Furniture / Home Store,Flea Market,Entertainment Service
340,Munirka Flyover,New Delhi District,110067,28.553441,77.174918,Indian Restaurant,Playground,Furniture / Home Store,Flea Market,Entertainment Service
341,Munirka Kunj Main Road,New Delhi District,110067,28.553441,77.174918,Indian Restaurant,Playground,Furniture / Home Store,Flea Market,Entertainment Service
342,Munirka Marg,New Delhi District,110067,28.553441,77.174918,Indian Restaurant,Playground,Furniture / Home Store,Flea Market,Entertainment Service
343,Munirka Vihar,New Delhi District,110067,28.553441,77.174918,Indian Restaurant,Playground,Furniture / Home Store,Flea Market,Entertainment Service
344,Naharpur Village,North West District,110085,28.703462,77.115124,Ice Cream Shop,Shopping Mall,Pizza Place,Fast Food Restaurant,Multiplex
345,Najafgarh,South West District,110043,28.613304,76.980431,Rental Service,Indie Movie Theater,Food & Drink Shop,Yoga Studio,Food Truck
346,Nangloi,West District,110041,28.672178,77.065816,ATM,Event Space,Football Stadium,Food Truck,Food Court
347,Nanhey Park New Delhi,New Delhi District,,28.63269399999996,77.21966000000003,Indian Restaurant,Café,Chinese Restaurant,Bar,Coffee Shop
348,Narmada Apartments,South East Delhi District,110019,28.527007000000005,77.248206,BBQ Joint,Thai Restaurant,Gym,New American Restaurant,Yoga Studio
349,Nathupur Road,New Delhi District,110010,28.597113,77.132191,Shopping Mall,Café,Indian Restaurant,Coffee Shop,Food Truck
350,Navin Shahdara,Shahdara District,,28.671679,77.294197,Platform,Entertainment Service,Food Truck,Food Court,Food & Drink Shop
351,Navjeevan Vihar,South District,110017,28.533019000000003,77.199801,Café,Hotel,Pub,Golf Course,Restaurant
352,Nawada Sainik Nagar,West District,110059,28.616509,77.041746,Café,IT Services,Yoga Studio,Football Stadium,Food Truck
353,Nawada Uttam Nagar,West District,110059,28.618535000000005,77.056782,Pizza Place,Indian Restaurant,Mobile Phone Shop,Astrologer,Train Station
354,Neb Sarai,South District,110062,28.505609000000003,77.198864,Tour Provider,Fast Food Restaurant,Lounge,Yoga Studio,Event Space
355,Nelson Mandela Marg,New Delhi District,110067,28.55343,77.16635900000001,Café,College Cafeteria,Restaurant,Spa,Coffee Shop
356,Netaji Subash Marg,Central District,110002,28.645492,77.240409,Indian Restaurant,Restaurant,Road,Bank,Yoga Studio
357,Netaji Subhash Place,North West District,110034,28.692377000000008,77.14947699999999,Shopping Mall,Indian Restaurant,Coffee Shop,Fast Food Restaurant,Pizza Place
358,New Ashok Nagar,East District,110096,28.594022,77.30742,Coffee Shop,Yoga Studio,Event Space,Football Stadium,Food Truck
359,New Friends Colony,South East Delhi District,110025,28.565556000000008,77.27041000000001,Café,Indian Restaurant,Hotel,Pizza Place,Chinese Restaurant
360,New Govindpura,East District,110051,28.645781,77.284887,Shopping Mall,Clothing Store,BBQ Joint,Fabric Shop,Football Stadium
361,New Kondli,East District,110096,28.606115,77.330756,Hotel,Food,Market,Yoga Studio,Event Space
362,New Krishna Nagar,Shahdara District,110051,28.65846,77.283538,Pizza Place,Fast Food Restaurant,Gym,French Restaurant,Food Truck
363,New Layal Pur,North East District,110053,28.674808,77.267115,Shopping Mall,Tourist Information Center,Event Space,Football Stadium,Food Truck
364,New Pragatesheel Apartment,East District,110096,28.600928,77.320745,Pizza Place,Convenience Store,Market,Stadium,Event Space
365,New Rajendra Nagar,Central District,110060,28.636315000000003,77.17996,Café,Bed & Breakfast,Arcade,Market,Sporting Goods Shop
366,Nirman Vihar,East District,110092,28.635381999999996,77.287782,Indian Restaurant,Shopping Mall,Light Rail Station,Pizza Place,Café
367,Niti Bagh,South District,110049,28.558990999999995,77.215324,Café,Dessert Shop,Park,Metro Station,Music Venue
368,Nizamuddin,South East Delhi District,110013,28.589526000000003,77.24433499999999,Indian Restaurant,Historic Site,Mughlai Restaurant,Garden,BBQ Joint
369,Noor Nagar,South East Delhi District,110025,28.557413,77.287111,Fried Chicken Joint,Hostel,Café,Tea Room,Dessert Shop
370,Okhla,South East Delhi District,110025,28.564066999999998,77.289191,Metro Station,ATM,Playground,Chinese Restaurant,Coffee Shop
371,Okhla Vihar,South East Delhi District,110025,28.554818,77.290006,Tea Room,Café,Bengali Restaurant,Gym,Food Truck
372,Old Delhi,South East Delhi District,110025,28.563077999999997,77.289901,Metro Station,ATM,Indian Restaurant,Playground,Coffee Shop
373,Om Vihar Extn Delhi,West District,110059,28.617795,77.050624,Indian Restaurant,Event Space,Football Stadium,Food Truck,Food Court
374,Om Vihar Extn Om Vihar,West District,110059,28.617795,77.050624,Indian Restaurant,Event Space,Football Stadium,Food Truck,Food Court
375,Palam,South West District,110045,28.580917,77.088389,Health & Beauty Service,Yoga Studio,Fried Chicken Joint,Football Stadium,Food Truck
376,Palam Vihar,South West District,110045,28.580917,77.088389,Health & Beauty Service,Yoga Studio,Fried Chicken Joint,Football Stadium,Food Truck
377,Panchsheel Enclave,South District,110017,28.543794,77.229476,Event Space,Lounge,Indian Restaurant,Gym,Food Truck
378,Panchsheel Park,South District,110017,28.543272,77.21507599999998,Indian Restaurant,Hotel,Lounge,Garden,Bank
379,Panchsheel Vihar,South District,110017,28.534382999999995,77.222077,Pizza Place,Burger Joint,Burmese Restaurant,Men's Store,Grocery Store
380,Pandav Nagar,East District,110091,28.619712999999997,77.28567499999998,Dessert Shop,Metro Station,Convenience Store,Restaurant,Park
381,Pankha Road,South West District,110046,28.608029,77.103424,Indian Restaurant,Café,Football Stadium,Food Truck,Food Court
382,Pant Nagar,South East Delhi District,110014,28.585639,77.243685,Bed & Breakfast,Sandwich Place,Yoga Studio,French Restaurant,Food Truck
383,Param Puri,West District,110059,28.618947999999996,77.054646,Pizza Place,Indian Restaurant,Mobile Phone Shop,Astrologer,Train Station
384,Partap Nagar,Shahdara District,110093,28.708526,77.307316,Tourist Information Center,Yoga Studio,Event Space,Football Stadium,Food Truck
385,Paryatan Vihar,East District,110096,28.600932,77.313833,Café,Bakery,Market,Gym,Yoga Studio
386,Paryavaran Complex,South District,110068,28.516060000000003,77.203128,Coffee Shop,Indian Restaurant,Mediterranean Restaurant,Asian Restaurant,Pub
387,Paryavaran Complex Main,South District,110068,28.516060000000003,77.203128,Coffee Shop,Indian Restaurant,Mediterranean Restaurant,Asian Restaurant,Pub
388,Paschim Vihar,West District,110063,28.669306,77.093265,Hotel,Indian Restaurant,Food Truck,Coffee Shop,Event Space
389,Paschim Vihar A 1 Block,West District,110063,28.678813,77.096991,Indian Restaurant,Convenience Store,Event Space,Football Stadium,Food Truck
390,Paschim Vihar Main,West District,110063,28.669306,77.093265,Hotel,Indian Restaurant,Food Truck,Coffee Shop,Event Space
391,Patel Nagar,West District,110008,28.652637,77.163834,Park,Gym / Fitness Center,Indian Restaurant,Sporting Goods Shop,Hotel
392,Patparganj,East District,110091,28.60963,77.291812,Gym / Fitness Center,Coffee Shop,Bakery,Snack Place,Department Store
393,Peeragarhi Village,West District,110087,28.6764,77.0906,ATM,Hotel Bar,Train Station,Entertainment Service,Food Truck
394,Pipal Wala Road,West District,110059,28.620387,77.039184,Motorcycle Shop,Yoga Studio,Event Space,Football Stadium,Food Truck
395,Pitampura,North West District,110034,28.69176,77.120353,Hotel,Bar,Yoga Studio,Fabric Shop,Football Stadium
396,Pochanpur Colony,South West District,110077,28.561103,77.047446,ATM,Home Service,Health Food Store,Department Store,Event Space
397,Pocket 10 Sector B,South District,110070,28.532418,77.153659,Café,Arcade,Thai Restaurant,Clothing Store,Fabric Shop
398,Pocket 11 Sector B,South District,110070,28.532134,77.151477,Arcade,Bakery,Thai Restaurant,Clothing Store,Yoga Studio
399,Pocket 2 Sector 6 Dwarka,South West District,110075,28.59122,77.059791,Fast Food Restaurant,Indian Restaurant,Coffee Shop,Event Space,Football Stadium
400,Pocket 2 Sector D,East District,110096,28.613827,77.327863,Restaurant,Yoga Studio,Event Space,Food Truck,Food Court
401,Pocket 7 Dwarka Sector 12,South West District,110078,28.591314,77.043701,Indian Restaurant,Farmers Market,Market,Restaurant,Shopping Mall
402,Pocket 7 Sector D,South District,110070,28.529379,77.146218,Art Gallery,Hotel,Soccer Stadium,Bed & Breakfast,Yoga Studio
403,Pocket 8 Sector C,South District,110070,28.537006,77.141515,ATM,Juice Bar,Pizza Place,Park,Spa
404,Pocket 9 Sector B,New Delhi District,110070,28.531719,77.152256,Café,Arcade,Thai Restaurant,Clothing Store,Fabric Shop
405,Pocket 9 Sector C,South District,110070,28.539503000000003,77.143912,Pizza Place,BBQ Joint,Gastropub,Spa,Café
406,Pocket A Sector 17 Dwarka,South West District,110078,28.591823,77.028044,ATM,Event Space,Football Stadium,Food Truck,Food Court
407,Police Lines,North District,110009,28.697125,77.202464,Café,Light Rail Station,Restaurant,North Indian Restaurant,Chinese Restaurant
408,Pontoon Bridge,North East District,110054,28.70587,77.232257,Asian Restaurant,Coffee Shop,Café,Yoga Studio,Fabric Shop
409,Poorvi Pitampura,North West District,110034,28.69176,77.120353,Hotel,Bar,Yoga Studio,Fabric Shop,Football Stadium
410,Pratap Khand,Shahdara District,110095,28.672288,77.30823,Juice Bar,Yoga Studio,Event Space,Football Stadium,Food Truck
411,Preet Vihar,East District,110092,28.639118,77.294735,Fast Food Restaurant,Pizza Place,Arcade,Light Rail Station,Chinese Restaurant
412,Prime Chowk,New Delhi District,110011,28.608729,77.208822,Department Store,Government Building,Yoga Studio,Fabric Shop,Football Stadium
413,Priyadarshini Vihar,East District,110092,28.642246,77.277938,Cupcake Shop,Dessert Shop,Fast Food Restaurant,Optical Shop,Chinese Restaurant
414,Punjabi Bagh,West District,110026,28.667505000000002,77.127874,Indian Restaurant,Garden Center,Donut Shop,Coffee Shop,Hookah Bar
415,Puth Khurd Village,North District,110039,28.770351,77.04933,ATM,Event Space,Football Stadium,Food Truck,Food Court
416,Raja Puri,North District,110009,28.709453000000003,77.183525,Park,Indian Restaurant,Chinese Restaurant,Bus Station,Event Space
417,Rajapuri East Uttam Nagar,West District,110059,28.618535000000005,77.056782,Pizza Place,Indian Restaurant,Mobile Phone Shop,Astrologer,Train Station
418,Rajiv Chowk,New Delhi District,110001,28.631605999999966,77.21927500000004,Indian Restaurant,Café,Chinese Restaurant,Bar,Coffee Shop
419,Rajouri Garden,West District,110027,28.643074000000006,77.124982,Ice Cream Shop,Gym,Park,Clothing Store,Electronics Store
420,Rajpur,South District,110068,28.49442,77.190688,Indian Restaurant,Food Truck,Event Space,Football Stadium,Food Court
421,Rajpur Khurd Village,South District,110068,28.49442,77.190688,Indian Restaurant,Food Truck,Event Space,Football Stadium,Food Court
422,Ram Nagar Extension,Shahdara District,110051,28.654776,77.282714,Bakery,Department Store,Yoga Studio,Farm,French Restaurant
423,Rama Park,West District,110059,28.621244,77.034906,Indian Restaurant,Light Rail Station,Fast Food Restaurant,Mobile Phone Shop,Pizza Place
424,Rama Park Block B,West District,110059,28.622718,77.034595,Indian Restaurant,Light Rail Station,Mobile Phone Shop,Pizza Place,Hotel
425,Ramesh Nagar,West District,110015,28.649317999999997,77.130681,Chinese Restaurant,Pizza Place,Metro Station,Dessert Shop,Indian Restaurant
426,Ranjeet Nagar,West District,110008,28.64345,77.169485,Pizza Place,Café,Donut Shop,Coffee Shop,Metro Station
427,Residential Flat East Of Kailash,South East Delhi District,110065,28.555345999999997,77.247987,Indie Movie Theater,Hot Dog Joint,Coffee Shop,Bar,Fast Food Restaurant
428,Residential Flat Mehrauli,South District,110030,28.521341,77.179337,Thai Restaurant,Market,Restaurant,Yoga Studio,Event Space
429,Residential Flat Pocket A,South East Delhi District,110076,28.534737,77.288388,Café,Pizza Place,Breakfast Spot,Cricket Ground,Food Truck
430,Residential Flat Pocket D,South East Delhi District,110076,28.531203,77.296619,Park,Grocery Store,Yoga Studio,Event Space,Food Truck
431,Residential Flat Uttam Nagar,West District,110059,28.618535000000005,77.056782,Pizza Place,Indian Restaurant,Mobile Phone Shop,Astrologer,Train Station
432,Residential Floor Drayaganj,New Delhi District,110001,28.610070999999998,77.20741,Indian Restaurant,Department Store,Music Venue,National Park,Government Building
433,Residential Floor East Ram Nagar,East District,,28.623835,77.270836,Light Rail Station,River,French Restaurant,Food Truck,Food Court
434,Residential Floor Tilak Nagar,West District,110018,28.637747999999995,77.088869,Light Rail Station,Pharmacy,Gym / Fitness Center,Mobile Phone Shop,Electronics Store
435,Residential Floor Uttam Nagar,West District,110059,28.618535000000005,77.056782,Pizza Place,Indian Restaurant,Mobile Phone Shop,Astrologer,Train Station
436,Residential Floorblocka Sector,New Delhi District,110001,28.610070999999998,77.20741,Indian Restaurant,Department Store,Music Venue,National Park,Government Building
437,Residential Floorpaschim Vihar,New Delhi District,110001,28.610070999999998,77.20741,Indian Restaurant,Department Store,Music Venue,National Park,Government Building
438,Residential Floorsector,New Delhi District,110001,28.610070999999998,77.20741,Indian Restaurant,Department Store,Music Venue,National Park,Government Building
439,Residential House Uttam Nagar,West District,110059,28.618535000000005,77.056782,Pizza Place,Indian Restaurant,Mobile Phone Shop,Astrologer,Train Station
440,Rishi Nagar,North West District,110034,28.686199,77.127398,Indian Restaurant,Café,Department Store,Men's Store,Cafeteria
441,Rithala,North West District,110085,28.718672,77.100659,Motorcycle Shop,Yoga Studio,Event Space,Football Stadium,Food Truck
442,Road Number 1,South District,110030,28.479352,77.128902,Hotel,Yoga Studio,Furniture / Home Store,Light Rail Station,Event Space
443,Rohini Sector 16,North District,110089,28.735915,77.122823,Spa,Burger Joint,Yoga Studio,French Restaurant,Food Truck
444,Rohini Sector 24,North West District,110085,28.725017,77.085407,Business Service,Yoga Studio,Fabric Shop,Football Stadium,Food Truck
445,Rohini Sector 5,North West District,110085,28.713639,77.103875,Health & Beauty Service,Clothing Store,Restaurant,Rest Area,Entertainment Service
446,Rohini Sector 9,North District,110085,28.717325,77.127455,Ice Cream Shop,Basketball Court,Food,Shopping Mall,Dessert Shop
447,Roop Nagar,Central District,110007,28.684983999999996,77.20039,Breakfast Spot,Pizza Place,Playground,Miscellaneous Shop,Event Space
448,Sadar Bazaar,New Delhi District,110010,28.591759,77.120554,Indian Restaurant,Convenience Store,Event Space,Football Stadium,Food Truck
449,Sadh Nagar Palam Colony,South West District,110045,28.591095,77.0938,Sporting Goods Shop,Yoga Studio,Fried Chicken Joint,Football Stadium,Food Truck
450,Sadulajab,New Delhi District,,28.63269399999996,77.21966000000003,Indian Restaurant,Café,Chinese Restaurant,Bar,Coffee Shop
451,Safdarjung,South District,110029,28.565740999999996,77.194877,Indian Restaurant,Snack Place,Department Store,Nightclub,Fast Food Restaurant
452,Safdarjung Development Area,South District,110016,28.551221,77.199048,Coffee Shop,Bar,American Restaurant,Other Nightlife,Flower Shop
453,Safdarjung Enclave,South District,110029,28.565740999999996,77.194877,Indian Restaurant,Snack Place,Department Store,Nightclub,Fast Food Restaurant
454,Sagarpur Palam Road,New Delhi District,110046,28.604898,77.107483,Coffee Shop,Yoga Studio,Event Space,Football Stadium,Food Truck
455,Sainik Nagar Mansa Ram Park,West District,110059,28.617651,77.039019,ATM,IT Services,Pet Store,Entertainment Service,Food Truck
456,Saiyad Ul Ajaib Village,South District,110030,28.518080000000005,77.200847,Coffee Shop,Indian Restaurant,Restaurant,Bakery,Café
457,Saket,South District,110017,28.52384799999999,77.206773,Pizza Place,Convenience Store,Hotel,Lounge,Café
458,Sandesh Vihar,North West District,110034,28.691363,77.141998,Plaza,Hotel,Yoga Studio,Entertainment Service,Food Truck
459,Sangam Vihar,South East Delhi District,110080,28.500277,77.244059,ATM,Athletics & Sports,Department Store,Dessert Shop,French Restaurant
460,Santnagar,Central District,110084,28.740852,77.20271,Platform,Entertainment Service,Food Truck,Food Court,Food & Drink Shop
461,Sarai Rohilla,Central District,110005,28.66302,77.182898,Indian Restaurant,Train Station,Fast Food Restaurant,Business Service,Event Space
462,Saraswati Vihar,North West District,110034,28.696815000000004,77.12461,Pizza Place,Café,Park,Bakery,Lake
463,Sarita Vihar,South East Delhi District,110076,28.530896,77.294073,Park,Grocery Store,Yoga Studio,Event Space,Food Truck
464,Sarojini Nagar,South District,110023,28.57568800000001,77.19575699999999,Indian Restaurant,Shopping Mall,Women's Store,Market,Pizza Place
465,Sarvodaya Enclave,South District,110017,28.537995999999996,77.201102,Indian Restaurant,Café,Pub,Parsi Restaurant,Hotel
466,Sec 6 Pocket 1,South West District,110075,28.594708,77.074252,Hobby Shop,Nightlife Spot,Yoga Studio,Event Space,Food Truck
467,Sector 1 Dwarka,South West District,110045,28.597807,77.073263,Ice Cream Shop,Hobby Shop,Chinese Restaurant,Nightlife Spot,Event Space
468,Sector 10,North District,110085,28.725049000000002,77.114447,Pizza Place,Fast Food Restaurant,Shopping Mall,Asian Restaurant,Theme Park
469,Sector 10 Dwarka,South West District,110075,28.583059999999993,77.057824,Hotel,Electronics Store,Asian Restaurant,Light Rail Station,Shopping Mall
470,Sector 10 Pocket 1,South West District,110075,28.594815,77.074271,Hobby Shop,Nightlife Spot,Yoga Studio,Event Space,Food Truck
471,Sector 103,North District,110042,28.735093,77.142806,Metro Station,Yoga Studio,Fried Chicken Joint,Football Stadium,Food Truck
472,Sector 108,North District,110040,28.855418,77.096334,Bank,Yoga Studio,Frozen Yogurt Shop,French Restaurant,Football Stadium
473,Sector 11,North West District,110085,28.73339,77.109005,Pizza Place,Multiplex,Photography Studio,Deli / Bodega,Fabric Shop
474,Sector 11 Dwarka,South West District,110075,28.589461,77.050047,Department Store,Yoga Studio,Event Space,Football Stadium,Food Truck
475,Sector 11 Dwarka Pocket 2,South West District,110075,28.585773,77.045946,Ice Cream Shop,Light Rail Station,Spa,Indian Restaurant,Hotel
476,Sector 11 Rohini,North West District,110085,28.73339,77.109005,Pizza Place,Multiplex,Photography Studio,Deli / Bodega,Fabric Shop
477,Sector 111,North West District,110086,28.736906,77.051255,Tourist Information Center,Yoga Studio,Event Space,Football Stadium,Food Truck
478,Sector 112,North District,110040,28.855418,77.096334,Bank,Yoga Studio,Frozen Yogurt Shop,French Restaurant,Football Stadium
479,Sector 12,North District,110085,28.728298,77.122771,Ice Cream Shop,Clothing Store,BBQ Joint,Yoga Studio,Fabric Shop
480,Sector 12 Dwarka,South West District,110078,28.594671999999996,77.042238,Indian Restaurant,Farmers Market,Market,Restaurant,Shopping Mall
481,Sector 12 Dwarka New Delhi,South West District,110078,28.594671999999996,77.042238,Indian Restaurant,Farmers Market,Market,Restaurant,Shopping Mall
482,Sector 12 Dwarka Pocket 2,South West District,110078,28.595479000000008,77.04788099999999,Pizza Place,Café,Bank,Indian Restaurant,Cocktail Bar
483,Sector 12 Dwarka Pocket 3,South West District,110078,28.595862000000007,77.04682000000001,Pizza Place,Café,Department Store,Indian Restaurant,Fast Food Restaurant
484,Sector 12 Pocket 7,North District,110040,28.840909,77.099224,ATM,Event Space,Football Stadium,Food Truck,Food Court
485,Sector 13,North District,110089,28.721065,77.128913,Department Store,Dessert Shop,Bakery,Yoga Studio,Farm
486,Sector 13 Dwarka,South West District,110078,28.599382999999996,77.03614600000002,Fried Chicken Joint,Electronics Store,Café,Light Rail Station,Asian Restaurant
487,Sector 13 Rohini,North District,110089,28.721065,77.128913,Department Store,Dessert Shop,Bakery,Yoga Studio,Farm
488,Sector 14 Dwarka,South West District,110078,28.601374,77.027647,Fast Food Restaurant,Light Rail Station,Yoga Studio,Event Space,Football Stadium
489,Sector 15 Rohini,North District,110089,28.732456,77.127145,Indian Restaurant,Burger Joint,BBQ Joint,Café,Fried Chicken Joint
490,Sector 15A,Central District,110054,28.675372,77.223558,Indian Restaurant,Hotel,Light Rail Station,Chinese Restaurant,Café
491,Sector 17,North District,110089,28.741052,77.115233,ATM,Juice Bar,Event Space,Football Stadium,Food Truck
492,Sector 17 Dwarka,South West District,110078,28.591823,77.028044,ATM,Event Space,Football Stadium,Food Truck,Food Court
493,Sector 18,North District,110089,28.740602,77.137224,Metro Station,Yoga Studio,Fried Chicken Joint,Football Stadium,Food Truck
494,Sector 18 Rohini,North District,110089,28.740602,77.137224,Metro Station,Yoga Studio,Fried Chicken Joint,Football Stadium,Food Truck
495,Sector 18B Dwarka,South West District,110078,28.585601,77.03178,ATM,Event Space,Football Stadium,Food Truck,Food Court
496,Sector 19,South West District,110075,28.577133,77.052768,Hotel,Shopping Mall,Electronics Store,Asian Restaurant,Flea Market
497,Sector 19 Dwarka,South West District,110075,28.576972000000005,77.053127,Hotel,Shopping Mall,Electronics Store,Asian Restaurant,Flea Market
498,Sector 19B,West District,110063,28.667179,77.101017,ATM,Sandwich Place,Multicuisine Indian Restaurant,Pizza Place,Coffee Shop
499,Sector 2 Dwarka,South West District,110075,28.598827,77.067843,Ice Cream Shop,Dessert Shop,Bus Station,Yoga Studio,Fabric Shop
500,Sector 21,New Delhi District,110077,28.558233,77.0688,Bar,Yoga Studio,Frozen Yogurt Shop,French Restaurant,Football Stadium
501,Sector 21 Dwarka,New Delhi District,110077,28.55764,77.067198,Café,Hotel,Coffee Shop,Bar,Yoga Studio
502,Sector 21 Dwarka New Delhi,New Delhi District,110077,28.55764,77.067198,Café,Hotel,Coffee Shop,Bar,Yoga Studio
503,Sector 21 Road,New Delhi District,110077,28.558233,77.0688,Bar,Yoga Studio,Frozen Yogurt Shop,French Restaurant,Football Stadium
504,Sector 22 Dwarka,New Delhi District,110077,28.560631,77.059501,Pizza Place,Hotel,Café,Shopping Mall,Department Store
505,Sector 23 Dwarka,New Delhi District,110077,28.56448,77.055066,Pizza Place,Park,Bed & Breakfast,Shopping Mall,Dessert Shop
506,Sector 24 Rohini,North West District,110085,28.725017,77.085407,Business Service,Yoga Studio,Fabric Shop,Football Stadium,Food Truck
507,Sector 25 Dwarka,South West District,110077,28.555591,77.054558,Light Rail Station,Farm,Business Service,Shopping Mall,Dim Sum Restaurant
508,Sector 26 Dwarka,South West District,110077,28.545199,77.055081,Jewelry Store,Farm,Yoga Studio,Event Space,Football Stadium
509,Sector 28 Dwarka,South West District,110045,28.596492,77.075086,Nightlife Spot,Science Museum,Hobby Shop,Gym,Yoga Studio
510,Sector 29 Dwarka,South West District,110075,28.57616,77.050916,ATM,Event Space,Football Stadium,Food Truck,Food Court
511,Sector 3 Dwarka,West District,110078,28.606630999999997,77.044155,Auto Workshop,Motorcycle Shop,Convenience Store,Park,Business Service
512,Sector 30,North District,110042,28.755792,77.082597,Public Bathroom,Yoga Studio,Entertainment Service,Food Truck,Food Court
513,Sector 4,South District,110017,28.524277,77.228379,Pharmacy,Flea Market,Sandwich Place,Music Store,Cricket Ground
514,Sector 4 Dwarka,West District,110078,28.602437,77.048068,Café,Chinese Restaurant,Nightclub,Yoga Studio,Food Truck
515,Sector 4 Road,South District,110017,28.524277,77.228379,Pharmacy,Flea Market,Sandwich Place,Music Store,Cricket Ground
516,Sector 4 Rohini,North West District,110085,28.707737000000005,77.10273,Clothing Store,Electronics Store,Steakhouse,Business Service,Gym / Fitness Center
517,Sector 5,South District,110017,28.52352,77.224102,Boutique,Yoga Studio,Fabric Shop,Football Stadium,Food Truck
518,Sector 5 Dwarka,South West District,110075,28.59772,77.057337,Indian Restaurant,Fast Food Restaurant,Restaurant,Cricket Ground,Food Truck
519,Sector 6,New Delhi District,110021,28.579063,77.167392,Pizza Place,BBQ Joint,Café,French Restaurant,Food Truck
520,Sector 6 Dwarka,South West District,110075,28.59306,77.065686,Bakery,Yoga Studio,Frozen Yogurt Shop,French Restaurant,Football Stadium
521,Sector 6 Dwarka Palam Vihar,South West District,110075,28.594958,77.068549,Ice Cream Shop,Dessert Shop,Chinese Restaurant,Hobby Shop,Yoga Studio
522,Sector 7,South District,110017,28.530248,77.227821,Men's Store,Fast Food Restaurant,Yoga Studio,Fried Chicken Joint,Football Stadium
523,Sector 7 Dwarka,South West District,110075,28.593441,77.072453,Hobby Shop,Nightlife Spot,Yoga Studio,Event Space,Food Truck
524,Sector 7 Dwarka New Delhi,South West District,110075,28.593441,77.072453,Hobby Shop,Nightlife Spot,Yoga Studio,Event Space,Food Truck
525,Sector 8 Dwarka Block B,South West District,110077,28.575746999999996,77.073874,Smoothie Shop,Food Truck,Park,Yoga Studio,Event Space
526,Sector 8B,East District,110096,28.612632,77.328481,Restaurant,Yoga Studio,Event Space,Food Truck,Food Court
527,Sector 9,North District,110085,28.717325,77.127455,Ice Cream Shop,Basketball Court,Food,Shopping Mall,Dessert Shop
528,Sector 9 Dwarka,South West District,110077,28.57934,77.065129,Indian Restaurant,Food Truck,Event Space,Football Stadium,Food Court
529,Sector 9 Rohini,North District,110085,28.717325,77.127455,Ice Cream Shop,Basketball Court,Food,Shopping Mall,Dessert Shop
530,Sector B,South District,110070,28.522471,77.164599,Nightclub,Bed & Breakfast,Arcade,Café,Yoga Studio
531,Sector B Pocket 10,South District,110070,28.532418,77.153659,Café,Arcade,Thai Restaurant,Clothing Store,Fabric Shop
532,Sector C Vasant Kunj,South District,110070,28.534377000000003,77.14597200000001,Café,Spa,BBQ Joint,Park,Gastropub
533,Sector-14 Rohini,North West District,110085,28.714733999999996,77.13338699999998,Indian Restaurant,Food,Shopping Mall,Multiplex,Café
534,Sector-16 Dwarka,South West District,110075,28.59772,77.057337,Indian Restaurant,Fast Food Restaurant,Restaurant,Cricket Ground,Food Truck
535,Sector-18 Rohini,North District,110089,28.740602,77.137224,Metro Station,Yoga Studio,Fried Chicken Joint,Football Stadium,Food Truck
536,Sector-19 Rohini,North District,110042,28.734704,77.142842,Metro Station,Yoga Studio,Fried Chicken Joint,Football Stadium,Food Truck
537,Sector-21 Rohini,North West District,110086,28.713045,77.067062,ATM,Flea Market,Event Space,Football Stadium,Food Truck
538,Sector-24 Rohini,North West District,110085,28.725017,77.085407,Business Service,Yoga Studio,Fabric Shop,Football Stadium,Food Truck
539,Sector-7 Rohini,North West District,110085,28.708924,77.118426,Café,Chinese Restaurant,Yoga Studio,Football Stadium,Food Truck
540,Sector-8 Dwarka,South West District,110077,28.575746999999996,77.073874,Smoothie Shop,Food Truck,Park,Yoga Studio,Event Space
541,Sector-8 Rohini,North West District,110085,28.703194999999997,77.124575,Pizza Place,Indian Restaurant,Burger Joint,Fast Food Restaurant,Chinese Restaurant
542,Sector-B Vasant Kunj,South District,110070,28.522471,77.164599,Nightclub,Bed & Breakfast,Arcade,Café,Yoga Studio
543,Sector-D Vasant Kunj,South District,110070,28.521405,77.1461,Snack Place,Yoga Studio,Fried Chicken Joint,Football Stadium,Food Truck
544,Sector17 Rohini,North West District,110086,28.721034,77.073372,Food Truck,Yoga Studio,Event Space,Football Stadium,Food Court
545,Sector22 Rohini,North West District,110086,28.721034,77.073372,Food Truck,Yoga Studio,Event Space,Football Stadium,Food Court
546,Sector24,New Delhi District,,28.63269399999996,77.21966000000003,Indian Restaurant,Café,Chinese Restaurant,Bar,Coffee Shop
547,Sector4Pkt 1,New Delhi District,110038,28.514217,77.106693,ATM,Event Space,Football Stadium,Food Truck,Food Court
548,Sectorb Vasant Kunj,South District,110070,28.522471,77.164599,Nightclub,Bed & Breakfast,Arcade,Café,Yoga Studio
549,Sewa Nagar,South East Delhi District,110003,28.577172,77.225249,Clothing Store,Coffee Shop,Market,Steakhouse,Shoe Store
550,Sewak Park,West District,110059,28.617788,77.033562,ATM,Indian Restaurant,Light Rail Station,Fast Food Restaurant,Pizza Place
551,Sfs Flats Saket,South District,110017,28.52384799999999,77.206773,Pizza Place,Convenience Store,Hotel,Lounge,Café
552,Shadipur,West District,110008,28.652243,77.151937,Train Station,Moving Target,Metro Station,Yoga Studio,Event Space
553,Shahabad Mohammadpur,New Delhi District,110037,28.557121,77.071742,Bar,Yoga Studio,Frozen Yogurt Shop,French Restaurant,Football Stadium
554,Shahdara,Shahdara District,110032,28.671679,77.294197,Platform,Entertainment Service,Food Truck,Food Court,Food & Drink Shop
555,Shaheen Bagh New Delhi,South East Delhi District,110025,28.544888000000004,77.302624,Fast Food Restaurant,Hotel,Diner,Park,Market
556,Shahpur Jat,South District,110049,28.549127,77.21040700000002,Coffee Shop,Arcade,Bar,Australian Restaurant,Chinese Restaurant
557,Shakarpur,East District,110092,28.626963999999997,77.279287,Shopping Mall,Train Station,Gym,Snack Place,Coffee Shop
558,Shakti Nagar,Central District,110007,28.67965,77.195243,Fried Chicken Joint,Café,Playground,Concert Hall,Food Truck
559,Shakurpur,North West District,110034,28.682335,77.141606,Shopping Mall,Food Truck,Camera Store,Yoga Studio,Event Space
560,Shalimar Bagh,North District,110088,28.708724,77.166944,Pizza Place,Bakery,Indian Restaurant,Hotel Bar,Football Stadium
561,Shankar Garden,West District,110018,28.629272000000004,77.071521,Indian Restaurant,Café,Playground,Outlet Mall,Yoga Studio
562,Shankar Vihar,New Delhi District,110010,28.566631,77.14623,Airport Food Court,Yoga Studio,Fabric Shop,French Restaurant,Football Stadium
563,Shanti Niketan,New Delhi District,110021,28.576494000000004,77.168906,Pizza Place,Café,Convenience Store,Gourmet Shop,Bakery
564,Shanti Park Dwarka,South West District,110075,28.584408,77.049432,Ice Cream Shop,Circus,Spa,Light Rail Station,Dim Sum Restaurant
565,Shastri Nagar,Central District,110052,28.673383,77.179699,Pizza Place,Hotel,Light Rail Station,Shopping Mall,Deli / Bodega
566,Sheikh Sarai,South District,110017,28.536347000000003,77.221134,Pizza Place,Café,Indian Restaurant,Park,Burger Joint
567,Sheikh Sarai Inner Lane,South District,110017,28.536347000000003,77.221134,Pizza Place,Café,Indian Restaurant,Park,Burger Joint
568,Sheikh Sarai Phase2 New Delhi,South District,110017,28.534073,77.228266,Yoga Studio,Trail,Clothing Store,Fast Food Restaurant,Entertainment Service
569,Shivaji Marg,West District,110015,28.662335,77.152738,Women's Store,Café,Indian Restaurant,Train Station,Football Stadium
570,Shivalik,South District,110017,28.53229800000001,77.20652500000003,Coffee Shop,Pizza Place,Italian Restaurant,Café,Bookstore
571,Shreshtha Vihar,Shahdara District,110092,28.658515000000005,77.318579,Indian Restaurant,Italian Restaurant,Café,Event Space,Food Truck
572,Shyam Enclave,Shahdara District,110092,28.654006000000003,77.305415,Indian Restaurant,Café,Multiplex,Shopping Mall,Pizza Place
573,Shyam Vihar Phase1,South West District,110078,28.606015,77.02922,Diner,Chinese Restaurant,Fast Food Restaurant,Yoga Studio,Fabric Shop
574,Siddharth Enclave,South West District,110059,28.617713,77.064994,Metro Station,Yoga Studio,Fried Chicken Joint,Football Stadium,Food Truck
575,Siddhartha Enclave,South East Delhi District,110014,28.574015,77.25860899999999,Gym / Fitness Center,Indian Restaurant,Sculpture Garden,Hotel,Bakery
576,Siddhartha Extension,South East Delhi District,110014,28.580603,77.258955,Bus Station,Shopping Mall,Moving Target,Asian Restaurant,Historic Site
577,Sidharth Ext,South East Delhi District,110014,28.579252,77.255716,Shopping Mall,Asian Restaurant,Event Space,Football Stadium,Food Truck
578,Sirifort Road,New Delhi District,110010,28.597113,77.132191,Shopping Mall,Café,Indian Restaurant,Coffee Shop,Food Truck
579,Sitapuri,South West District,110059,28.607997,77.075381,Pool,Market,Business Service,Yoga Studio,Fabric Shop
580,Som Vihar,New Delhi District,110022,28.571889,77.175111,Coffee Shop,Multiplex,Restaurant,Convenience Store,Park
581,Sonepat,,,28.63269399999996,77.21966000000003,Indian Restaurant,Café,Chinese Restaurant,Bar,Coffee Shop
582,South Anarkali Delhi,South District,,28.515603,77.227055,Boutique,Plaza,Asian Restaurant,Café,Indian Restaurant
583,South Delhi,South District,,28.515603,77.227055,Boutique,Plaza,Asian Restaurant,Café,Indian Restaurant
584,South Ex,South District,,28.515603,77.227055,Boutique,Plaza,Asian Restaurant,Café,Indian Restaurant
585,South Extension,South East Delhi District,110049,28.571260999999996,77.21990900000002,Indian Restaurant,Coffee Shop,Pizza Place,Chinese Restaurant,Shoe Store
586,South Extension 2,South East Delhi District,110049,28.566667999999996,77.22091500000002,Coffee Shop,Indian Restaurant,Pizza Place,Market,Bakery
587,South Patel Nagar,West District,110008,28.652637,77.163834,Park,Gym / Fitness Center,Indian Restaurant,Sporting Goods Shop,Hotel
588,Sudarshan Park,West District,110015,28.660094,77.132877,Bakery,Gym / Fitness Center,Yoga Studio,Fried Chicken Joint,Football Stadium
589,Sukhdev Vihar,South East Delhi District,110025,28.555180000000004,77.274676,Ice Cream Shop,Gym / Fitness Center,Boat or Ferry,Garden,Ski Chalet
590,Sultanpur,South District,110030,28.48498,77.160476,Farm,Italian Restaurant,Soccer Stadium,Flower Shop,Yoga Studio
591,Sultanpur Extension,South District,110030,28.496868,77.164988,Hotel,Coffee Shop,Farm,Luggage Store,Yoga Studio
592,Sunlight Colony,South East Delhi District,110014,28.576913,77.258301,Shopping Mall,Moving Target,Bakery,Neighborhood,Football Stadium
593,Suraj Vihar,South West District,110078,28.612379,77.032206,Entertainment Service,Event Space,Football Stadium,Food Truck,Food Court
594,Surajmal Vihar,Shahdara District,110092,28.661599000000002,77.305985,Café,Hotel,Park,Multiplex,Bar
595,Sushant Lok Delhi,Shahdara District,110092,28.657155,77.316155,ATM,Italian Restaurant,Café,Indian Restaurant,Hotel Bar
596,Swasthya Vihar,East District,110092,28.640829000000004,77.28942099999999,Pizza Place,Arcade,Food Court,Gift Shop,Café
597,Tagore Garden,West District,110027,28.645861000000004,77.110687,Indian Restaurant,Light Rail Station,Ice Cream Shop,Clothing Store,Food Truck
598,Tagore Garden Extension,West District,110027,28.651729,77.112763,Indian Restaurant,Garden,Park,Spa,Event Space
599,Telibara,New Delhi District,,28.63269399999996,77.21966000000003,Indian Restaurant,Café,Chinese Restaurant,Bar,Coffee Shop
600,Tigri,South District,110062,28.511275,77.238326,Diner,Yoga Studio,Event Space,Football Stadium,Food Truck
601,Tilak Nagar,West District,110018,28.637747999999995,77.088869,Light Rail Station,Pharmacy,Gym / Fitness Center,Mobile Phone Shop,Electronics Store
602,Timarpur,Central District,110054,28.701694,77.221352,Cosmetics Shop,Pharmacy,Entertainment Service,Food Truck,Food Court
603,Tri Nagar,North West District,110035,28.678393,77.156999,ATM,Event Space,Football Stadium,Food Truck,Food Court
604,Uttam Nagar,West District,110059,28.618535000000005,77.056782,Pizza Place,Indian Restaurant,Mobile Phone Shop,Astrologer,Train Station
605,Uttam Nagar East,South West District,110059,28.619541,77.063775,Metro Station,Yoga Studio,Fried Chicken Joint,Football Stadium,Food Truck
606,Uttam Nagar Nanhey Park,West District,110059,28.618535000000005,77.056782,Pizza Place,Indian Restaurant,Mobile Phone Shop,Astrologer,Train Station
607,Uttam Nagar Subhash Park Extn,West District,110059,28.61231,77.055123,Indian Restaurant,Cheese Shop,Event Space,Football Stadium,Food Truck
608,Uttam Nagar West,West District,110059,28.618535000000005,77.056782,Pizza Place,Indian Restaurant,Mobile Phone Shop,Astrologer,Train Station
609,Uttari Pitampura,North West District,110034,28.69176,77.120353,Hotel,Bar,Yoga Studio,Fabric Shop,Football Stadium
610,V E E R Apartments Road,North East District,110053,28.688658,77.265926,ATM,Event Space,Football Stadium,Food Truck,Food Court
611,Vasant Enclave,New Delhi District,110057,28.574318,77.159724,Pharmacy,Recreation Center,Playground,Salad Place,Food & Drink Shop
612,Vasant Enclave Road,New Delhi District,110057,28.574318,77.159724,Pharmacy,Recreation Center,Playground,Salad Place,Food & Drink Shop
613,Vasant Kunj,South District,110070,28.51498,77.153245,Hostel,Yoga Studio,Event Space,Football Stadium,Food Truck
614,Vasant Kunj Enclave,South District,110070,28.51498,77.153245,Hostel,Yoga Studio,Event Space,Football Stadium,Food Truck
615,Vasant Kunj Marg,South District,110070,28.51498,77.153245,Hostel,Yoga Studio,Event Space,Football Stadium,Food Truck
616,Vasant Vihar,New Delhi District,110057,28.564479000000002,77.161155,Gym,Park,Market,Bakery,Chinese Restaurant
617,Vasant Vihar C Block,New Delhi District,110057,28.567879,77.15832,Salad Place,Chinese Restaurant,Market,Gym,Yoga Studio
618,Vasundhara Enclave,East District,110096,28.60126,77.321231,Pizza Place,Convenience Store,Market,Stadium,Event Space
619,Vijay Mandal Enclave,South District,110016,28.540769,77.204163,Event Space,Coffee Shop,Metro Station,Nightclub,Fabric Shop
620,Vijay Nagar,North District,110009,28.690227999999998,77.201634,Cheese Shop,Pet Store,Food Truck,Bakery,Chinese Restaurant
621,Vikas Puri,West District,110018,28.638774,77.075727,Fast Food Restaurant,Pizza Place,Café,Ice Cream Shop,Airport Food Court
622,Vikaspuri,West District,110018,28.638774,77.075727,Fast Food Restaurant,Pizza Place,Café,Ice Cream Shop,Airport Food Court
623,Vikaspuri Flyover,West District,110018,28.638774,77.075727,Fast Food Restaurant,Pizza Place,Café,Ice Cream Shop,Airport Food Court
624,Vinod Nagar East,East District,110091,28.623101,77.307622,Moving Target,Yoga Studio,Event Space,Food Truck,Food Court
625,Vinod Nagar North,East District,110092,28.626427,77.290015,ATM,Event Space,Football Stadium,Food Truck,Food Court
626,Vishal Enclave,West District,110027,28.650381999999997,77.11861900000001,Indian Restaurant,Café,Fast Food Restaurant,Asian Restaurant,Hotel
627,Vishnu Garden,West District,110018,28.653971,77.100309,Big Box Store,Yoga Studio,Frozen Yogurt Shop,French Restaurant,Football Stadium
628,Vishwakarma Park,East District,110092,28.63599,77.273982,Pharmacy,Food Truck,Yoga Studio,Entertainment Service,Food Court
629,Vishwas Park,West District,110059,28.611804999999997,77.057041,Indian Restaurant,Diner,Bakery,Cheese Shop,Fabric Shop
630,Vishwas Park Extn Uttam Nagar,West District,110059,28.610002,77.057957,Indian Restaurant,Diner,Bakery,Cheese Shop,Fabric Shop
631,Vivek Vihar,Shahdara District,110095,28.67147,77.302295,Clothing Store,Asian Restaurant,Train Station,Yoga Studio,Farm
632,Wazirabad,Central District,110084,28.724929,77.224245,ATM,Event Space,Football Stadium,Food Truck,Food Court
633,Wea,,,28.63269399999996,77.21966000000003,Indian Restaurant,Café,Chinese Restaurant,Bar,Coffee Shop
634,West Enclave,West District,,28.628375,77.074996,Indian Restaurant,Gym / Fitness Center,Coffee Shop,Sandwich Place,Food Court
635,West Punjabi Bagh,West District,,28.663638,77.052814,ATM,Event Space,Football Stadium,Food Truck,Food Court
636,Westend,West District,110087,28.671355999999996,77.092747,Hotel,Indian Restaurant,Food Truck,Coffee Shop,Event Space
637,Yamuna Road,Central District,110006,28.671820000000004,77.227706,Light Rail Station,Fast Food Restaurant,Lake,Hotel,Pizza Place
638,Zakir Nagar,South East Delhi District,110025,28.567269999999997,77.279498,Indian Restaurant,Event Space,Football Stadium,Food Truck,Food Court
639,Zone L Dwarka,South West District,110045,28.597807,77.073263,Ice Cream Shop,Hobby Shop,Chinese Restaurant,Nightlife Spot,Event Space
