,AreaName,District,PinCode,Longitude,Latitude,Cluster,1st most common venue,2nd most common venue,3rd most common venue,4th most common venue,5th most common venue
0,Peeragarhi Village,West District,110087,77.0906,28.6764,0,ATM,Hotel Bar,Train Station,Entertainment Service,Food Truck
1,Mansa Ram Park,West District,110059,77.039019,28.617651,0,ATM,IT Services,Pet Store,Entertainment Service,Food Truck
2,Mansa Ram Park Park Path,West District,110059,77.039019,28.617651,0,ATM,IT Services,Pet Store,Entertainment Service,Food Truck
3,Sainik Nagar Mansa Ram Park,West District,110059,77.039019,28.617651,0,ATM,IT Services,Pet Store,Entertainment Service,Food Truck
4,C Block Janakpuri Road,West District,110058,77.093496,28.620621,0,ATM,Spa,Clothing Store,Fast Food Restaurant,Event Space
5,Deoli Gaon Nai Basti,South District,110062,77.234013,28.505528,0,ATM,Trail,Chinese Restaurant,Entertainment Service,Food Truck
6,Devli Extention Deoli Gaon Nai Basti,South District,110062,77.234013,28.505528,0,ATM,Trail,Chinese Restaurant,Entertainment Service,Food Truck
7,Devli Nai Basti,South District,110062,77.234013,28.505528,0,ATM,Trail,Chinese Restaurant,Entertainment Service,Food Truck
8,Dcm Road,Central District,110007,77.204021,28.662616,0,Afghan Restaurant,Train Station,Yoga Studio,Event Space,Football Stadium
9,B K Dutt Colony,South East Delhi District,110003,77.215914,28.581666,0,Airport,Football Stadium,Antique Shop,Bakery,Yoga Studio
10,Shankar Vihar,New Delhi District,110010,77.14623,28.566631,0,Airport Food Court,Yoga Studio,Fabric Shop,French Restaurant,Football Stadium
11,Guru Ram Das Nagar,North District,110007,77.198608,28.687432,0,Arcade,Bakery,Cheese Shop,Yoga Studio,Farm
12,Pocket 11 Sector B,South District,110070,77.151477,28.532134,0,Arcade,Bakery,Thai Restaurant,Clothing Store,Yoga Studio
13,Freedom Fighter Enclave Road,South District,110062,77.201279,28.508718,0,Asian Restaurant,Yoga Studio,Fabric Shop,French Restaurant,Football Stadium
14,Commonwealth Games Village,East District,110092,77.273474,28.615,0,Athletics & Sports,History Museum,Event Space,Football Stadium,Food Truck
15,Sector 3 Dwarka,West District,110078,77.044155,28.606630999999997,0,Auto Workshop,Motorcycle Shop,Convenience Store,Park,Business Service
16,Chitra Vihar,East District,110092,77.28591900000002,28.642648000000005,0,BBQ Joint,Clothing Store,Dessert Shop,Shopping Mall,Bar
17,Mandakini Enclave,South East Delhi District,110019,77.248602,28.529337,0,BBQ Joint,Food & Drink Shop,Thai Restaurant,Gym,New American Restaurant
18,Alaknanda,South East Delhi District,110019,77.250154,28.527939,0,BBQ Joint,Steakhouse,Food & Drink Shop,Market,New American Restaurant
19,Narmada Apartments,South East Delhi District,110019,77.248206,28.527007000000005,0,BBQ Joint,Thai Restaurant,Gym,New American Restaurant,Yoga Studio
20,Dilshad Colony,Shahdara District,110095,77.326317,28.6884,0,BBQ Joint,Yoga Studio,Frozen Yogurt Shop,French Restaurant,Football Stadium
21,Dilshad Colony New Simapuri,Shahdara District,110095,77.326317,28.6884,0,BBQ Joint,Yoga Studio,Frozen Yogurt Shop,French Restaurant,Football Stadium
22,Ram Nagar Extension,Shahdara District,110051,77.282714,28.654776,0,Bakery,Department Store,Yoga Studio,Farm,French Restaurant
23,Sudarshan Park,West District,110015,77.132877,28.660094,0,Bakery,Gym / Fitness Center,Yoga Studio,Fried Chicken Joint,Football Stadium
24,Block Jp Poorvi Pitampura,North West District,110034,77.14598,28.702801999999995,0,Bakery,Shopping Mall,Hotel,Coffee Shop,Spa
25,Dwarka Sec 6,South West District,110075,77.065686,28.59306,0,Bakery,Yoga Studio,Frozen Yogurt Shop,French Restaurant,Football Stadium
26,Sector 6 Dwarka,South West District,110075,77.065686,28.59306,0,Bakery,Yoga Studio,Frozen Yogurt Shop,French Restaurant,Football Stadium
27,Bamnoli,South West District,110077,77.031618,28.545682,0,Bank,Auto Garage,Yoga Studio,Farm,French Restaurant
28,Bamnoli Village Delhi,South West District,110077,77.031618,28.545682,0,Bank,Auto Garage,Yoga Studio,Farm,French Restaurant
29,Dhul Siras,South West District,110077,77.03127,28.549419,0,Bank,Yoga Studio,Frozen Yogurt Shop,French Restaurant,Football Stadium
30,Sector 108,North District,110040,77.096334,28.855418,0,Bank,Yoga Studio,Frozen Yogurt Shop,French Restaurant,Football Stadium
31,Sector 112,North District,110040,77.096334,28.855418,0,Bank,Yoga Studio,Frozen Yogurt Shop,French Restaurant,Football Stadium
32,Mount Kailash Apartment,South East Delhi District,110065,77.245946,28.553428000000004,0,Bar,Arcade,Italian Restaurant,Bakery,Hot Dog Joint
33,Greater Kailash,South East Delhi District,110048,77.24258099999999,28.55346,0,Bar,Indian Restaurant,Italian Restaurant,Flea Market,Market
34,Dwarka Sec 21,New Delhi District,110077,77.0688,28.558233,0,Bar,Yoga Studio,Frozen Yogurt Shop,French Restaurant,Football Stadium
35,Sector 21,New Delhi District,110077,77.0688,28.558233,0,Bar,Yoga Studio,Frozen Yogurt Shop,French Restaurant,Football Stadium
36,Sector 21 Road,New Delhi District,110077,77.0688,28.558233,0,Bar,Yoga Studio,Frozen Yogurt Shop,French Restaurant,Football Stadium
37,Shahabad Mohammadpur,New Delhi District,110037,77.071742,28.557121,0,Bar,Yoga Studio,Frozen Yogurt Shop,French Restaurant,Football Stadium
38,Jangpura,South East Delhi District,110014,77.246022,28.585417,0,Bed & Breakfast,Sandwich Place,Flea Market,Yoga Studio,French Restaurant
39,Pant Nagar,South East Delhi District,110014,77.243685,28.585639,0,Bed & Breakfast,Sandwich Place,Yoga Studio,French Restaurant,Food Truck
40,Vishnu Garden,West District,110018,77.100309,28.653971,0,Big Box Store,Yoga Studio,Frozen Yogurt Shop,French Restaurant,Football Stadium
41,Golf Links,New Delhi District,110003,77.231184,28.597261,0,Boutique,Mexican Restaurant,Golf Course,Fast Food Restaurant,French Restaurant
42,Chattarpur,South District,110030,77.174925,28.48533,0,Boutique,Yoga Studio,Fabric Shop,Football Stadium,Food Truck
43,Chattarpur Enclave,South District,110030,77.174925,28.48533,0,Boutique,Yoga Studio,Fabric Shop,Football Stadium,Food Truck
44,Sector 5,South District,110017,77.224102,28.52352,0,Boutique,Yoga Studio,Fabric Shop,Football Stadium,Food Truck
45,Khari Baoli Road,Central District,110006,77.216728,28.657648,0,Breakfast Spot,Miscellaneous Shop,Burger Joint,Market,Yoga Studio
46,Block Gh5,New Delhi District,110077,77.071862,28.572861,0,Burger Joint,Bar,Fast Food Restaurant,Chaat Place,Yoga Studio
47,Madhu Vihar,South West District,110059,77.059258,28.601681,0,Bus Station,Kids Store,Yoga Studio,Fabric Shop,Football Stadium
48,Siddhartha Extension,South East Delhi District,110014,77.258955,28.580603,0,Bus Station,Shopping Mall,Moving Target,Asian Restaurant,Historic Site
49,119 Sector 6 Road,South West District,110059,77.06306,28.602664,0,Bus Station,Yoga Studio,Fabric Shop,Football Stadium,Food Truck
50,Mandawali,East District,110092,77.291411,28.630237,0,Business Service,Fried Chicken Joint,Convenience Store,Spa,Fabric Shop
51,Mirpur Turk,North East District,110094,77.265361,28.706748,0,Business Service,Yoga Studio,Fabric Shop,Football Stadium,Food Truck
52,Rohini Sector 24,North West District,110085,77.085407,28.725017,0,Business Service,Yoga Studio,Fabric Shop,Football Stadium,Food Truck
53,Sector 24 Rohini,North West District,110085,77.085407,28.725017,0,Business Service,Yoga Studio,Fabric Shop,Football Stadium,Food Truck
54,Sector-24 Rohini,North West District,110085,77.085407,28.725017,0,Business Service,Yoga Studio,Fabric Shop,Football Stadium,Food Truck
55,Block J,West District,110015,77.14639799999999,28.654794,0,Café,Donut Shop,Fried Chicken Joint,Moving Target,Metro Station
56,Vijay Nagar,North District,110009,77.201634,28.690227999999998,0,Cheese Shop,Pet Store,Food Truck,Bakery,Chinese Restaurant
57,Deoli Khanpur,South District,110062,77.230424,28.509519,0,Chinese Restaurant,ATM,Trail,Electronics Store,Event Space
58,Jawahar Park,South District,110062,77.23062,28.507696,0,Chinese Restaurant,ATM,Trail,Electronics Store,Event Space
59,Khanpur,South District,110062,77.230424,28.509519,0,Chinese Restaurant,ATM,Trail,Electronics Store,Event Space
60,Khanpur Colony,South District,110062,77.230424,28.509519,0,Chinese Restaurant,ATM,Trail,Electronics Store,Event Space
61,Khanpur Deoli,South District,110062,77.230424,28.509519,0,Chinese Restaurant,ATM,Trail,Electronics Store,Event Space
62,Khanpur Krishna Park,South District,110062,77.232441,28.509358,0,Chinese Restaurant,ATM,Trail,Electronics Store,Event Space
63,Krishna Park Jawahar Park,South District,110062,77.232441,28.509358,0,Chinese Restaurant,ATM,Trail,Electronics Store,Event Space
64,Vivek Vihar,Shahdara District,110095,77.302295,28.67147,0,Clothing Store,Asian Restaurant,Train Station,Yoga Studio,Farm
65,Sewa Nagar,South East Delhi District,110003,77.225249,28.577172,0,Clothing Store,Coffee Shop,Market,Steakhouse,Shoe Store
66,Sector 4 Rohini,North West District,110085,77.10273,28.707737000000005,0,Clothing Store,Electronics Store,Steakhouse,Business Service,Gym / Fitness Center
67,Ganesh Nagar,West District,110018,77.089232,28.635497,0,Clothing Store,Light Rail Station,Metro Station,Event Space,Football Stadium
68,Hauz Rani,South District,110017,77.2094,28.528977,0,Coffee Shop,Athletics & Sports,Metro Station,Event Space,Football Stadium
69,Safdarjung Development Area,South District,110016,77.199048,28.551221,0,Coffee Shop,Bar,American Restaurant,Other Nightlife,Flower Shop
70,Som Vihar,New Delhi District,110022,77.175111,28.571889,0,Coffee Shop,Multiplex,Restaurant,Convenience Store,Park
71,Budh Vihar,East District,110091,77.313299,28.622737,0,Convenience Store,Moving Target,Yoga Studio,Event Space,Food Truck
72,Ambica Vihar,West District,110087,77.080354,28.665092,0,Cosmetics Shop,Buffet,Asian Restaurant,Yoga Studio,Fabric Shop
73,Timarpur,Central District,110054,77.221352,28.701694,0,Cosmetics Shop,Pharmacy,Entertainment Service,Food Truck,Food Court
74,Hill View,New Delhi District,110010,77.123512,28.575996,0,Cricket Ground,Playground,History Museum,Australian Restaurant,Food Court
75,Priyadarshini Vihar,East District,110092,77.277938,28.642246,0,Cupcake Shop,Dessert Shop,Fast Food Restaurant,Optical Shop,Chinese Restaurant
76,Sector 13,North District,110089,77.128913,28.721065,0,Department Store,Dessert Shop,Bakery,Yoga Studio,Farm
77,Sector 13 Rohini,North District,110089,77.128913,28.721065,0,Department Store,Dessert Shop,Bakery,Yoga Studio,Farm
78,Ashok Vihar,North West District,110052,77.167153,28.6916,0,Department Store,Dessert Shop,Snack Place,Basketball Court,Yoga Studio
79,Ashok Vihar Phase-1,North West District,110052,77.167153,28.6916,0,Department Store,Dessert Shop,Snack Place,Basketball Court,Yoga Studio
80,Prime Chowk,New Delhi District,110011,77.208822,28.608729,0,Department Store,Government Building,Yoga Studio,Fabric Shop,Football Stadium
81,Dwarka 11 Sector,South West District,110075,77.050047,28.589461,0,Department Store,Yoga Studio,Event Space,Football Stadium,Food Truck
82,Sector 11 Dwarka,South West District,110075,77.050047,28.589461,0,Department Store,Yoga Studio,Event Space,Football Stadium,Food Truck
83,Hauz Khas Enclave,South District,110016,77.20364,28.548088,0,Dessert Shop,Coffee Shop,Other Nightlife,Burger Joint,Market
84,Govindpuri Extension New Delhi,South East Delhi District,110019,77.258786,28.534117,0,Dessert Shop,Convenience Store,Hotel,Bank,Gym
85,Pandav Nagar,East District,110091,77.28567499999998,28.619712999999997,0,Dessert Shop,Metro Station,Convenience Store,Restaurant,Park
86,Khari Baoli,Central District,110006,77.222944,28.657403999999993,0,Dessert Shop,Snack Place,Indian Restaurant,Miscellaneous Shop,Food & Drink Shop
87,137 Sector 13 Main Road,South West District,110078,77.034784,28.604477,0,Diner,Fast Food Restaurant,Grocery Store,Fried Chicken Joint,Yoga Studio
88,Delhi Apartments,West District,110078,77.054309,28.603676,0,Diner,Nightclub,Yoga Studio,Event Space,Food Truck
89,Tigri,South District,110062,77.238326,28.511275,0,Diner,Yoga Studio,Event Space,Football Stadium,Food Truck
90,Mansarovar Park,Shahdara District,110032,77.299151,28.681864,0,Electronics Store,Yoga Studio,Event Space,Football Stadium,Food Truck
91,Model Town,North District,,77.171765,28.730261,0,Electronics Store,Yoga Studio,Event Space,Football Stadium,Food Truck
92,Chandra Park,South West District,110078,77.032639,28.610899,0,Entertainment Service,Event Space,Football Stadium,Food Truck,Food Court
93,Suraj Vihar,South West District,110078,77.032206,28.612379,0,Entertainment Service,Event Space,Football Stadium,Food Truck,Food Court
94,Azad Apartments,South District,110016,77.20163,28.542398,0,Event Space,Coffee Shop,Metro Station,Nightclub,Fabric Shop
95,Vijay Mandal Enclave,South District,110016,77.204163,28.540769,0,Event Space,Coffee Shop,Metro Station,Nightclub,Fabric Shop
96,Sultanpur,South District,110030,77.160476,28.48498,0,Farm,Italian Restaurant,Soccer Stadium,Flower Shop,Yoga Studio
97,Dabri,South West District,110045,77.084165,28.6088,0,Farmers Market,Yoga Studio,Event Space,Football Stadium,Food Truck
98,Moti Nagar,West District,110015,77.13917,28.662193,0,Flea Market,Restaurant,Yoga Studio,Event Space,Food Truck
99,102 Sector 21 Road,North West District,110086,77.069416,28.712744,0,Flea Market,Yoga Studio,Event Space,Football Stadium,Food Truck
100,103 Sector 21 Road,North West District,110086,77.068569,28.711812,0,Flea Market,Yoga Studio,Event Space,Football Stadium,Food Truck
101,Mayur Vihar Iii,East District,110096,77.336514,28.610627000000004,0,Food Truck,Diner,Music Venue,Yoga Studio,Event Space
102,Mayur Vihar Phase 3,East District,110096,77.336514,28.610627000000004,0,Food Truck,Diner,Music Venue,Yoga Studio,Event Space
103,Sector17 Rohini,North West District,110086,77.073372,28.721034,0,Food Truck,Yoga Studio,Event Space,Football Stadium,Food Court
104,Sector22 Rohini,North West District,110086,77.073372,28.721034,0,Food Truck,Yoga Studio,Event Space,Football Stadium,Food Court
105,Kirti Nagar,West District,110015,77.142426,28.65052,0,Furniture / Home Store,Park,BBQ Joint,Yoga Studio,Fabric Shop
106,Gharoli Dairy Farm,East District,110096,77.332072,28.612945,0,Gift Shop,Music Venue,Yoga Studio,French Restaurant,Food Truck
107,Dwarka New Delhi 110075,South West District,110075,77.043334,28.575835,0,Gift Shop,Yoga Studio,Fried Chicken Joint,Football Stadium,Food Truck
108,D3 Street,New Delhi District,110057,77.154981,28.564080999999998,0,Gym,Bar,Tea Room,Asian Restaurant,Speakeasy
109,Vasant Vihar,New Delhi District,110057,77.161155,28.564479000000002,0,Gym,Park,Market,Bakery,Chinese Restaurant
110,L Zone Delhi,West District,110027,77.112166,28.636126,0,Gym,Sculpture Garden,Park,Stadium,Yoga Studio
111,Rohini Sector 5,North West District,110085,77.103875,28.713639,0,Health & Beauty Service,Clothing Store,Restaurant,Rest Area,Entertainment Service
112,Palam,South West District,110045,77.088389,28.580917,0,Health & Beauty Service,Yoga Studio,Fried Chicken Joint,Football Stadium,Food Truck
113,Palam Vihar,South West District,110045,77.088389,28.580917,0,Health & Beauty Service,Yoga Studio,Fried Chicken Joint,Football Stadium,Food Truck
114,Akshardham,East District,110092,77.27833,28.612332,0,History Museum,Hindu Temple,Yoga Studio,Entertainment Service,Food Truck
115,Akshardham Road,East District,110092,77.27833,28.612332,0,History Museum,Hindu Temple,Yoga Studio,Entertainment Service,Food Truck
116,Dwarka Sector 7,South West District,110075,77.072453,28.593441,0,Hobby Shop,Nightlife Spot,Yoga Studio,Event Space,Food Truck
117,Sec 6 Pocket 1,South West District,110075,77.074252,28.594708,0,Hobby Shop,Nightlife Spot,Yoga Studio,Event Space,Food Truck
118,Sector 10 Pocket 1,South West District,110075,77.074271,28.594815,0,Hobby Shop,Nightlife Spot,Yoga Studio,Event Space,Food Truck
119,Sector 7 Dwarka,South West District,110075,77.072453,28.593441,0,Hobby Shop,Nightlife Spot,Yoga Studio,Event Space,Food Truck
120,Sector 7 Dwarka New Delhi,South West District,110075,77.072453,28.593441,0,Hobby Shop,Nightlife Spot,Yoga Studio,Event Space,Food Truck
121,Anupam Garden 10Th Lane,South District,110017,77.208503,28.514134,0,Hostel,Bar,Bakery,Yoga Studio,Fabric Shop
122,E 2 Vasant Kunj,South District,110070,77.153245,28.51498,0,Hostel,Yoga Studio,Event Space,Football Stadium,Food Truck
123,Vasant Kunj,South District,110070,77.153245,28.51498,0,Hostel,Yoga Studio,Event Space,Football Stadium,Food Truck
124,Vasant Kunj Enclave,South District,110070,77.153245,28.51498,0,Hostel,Yoga Studio,Event Space,Football Stadium,Food Truck
125,Vasant Kunj Marg,South District,110070,77.153245,28.51498,0,Hostel,Yoga Studio,Event Space,Football Stadium,Food Truck
126,Commercial Shop Indra Park,West District,110059,77.068563,28.619936,0,Hotel,Flea Market,Metro Station,Gym,Yoga Studio
127,Lalita Park Foot Over Bridge,East District,110092,77.270747,28.631705,0,IT Services,Arts & Crafts Store,Hostel,Yoga Studio,Flea Market
128,Lalita Park,East District,110092,77.274076,28.630145,0,IT Services,Mobile Phone Shop,Light Rail Station,Train Station,Shopping Mall
129,22 Sector 13 Main Road,North West District,110086,77.056835,28.721875,0,IT Services,Yoga Studio,Event Space,Football Stadium,Food Truck
130,Alaknanda Dda Flats Road,Shahdara District,110032,77.276792,28.685531,0,IT Services,Yoga Studio,Event Space,Football Stadium,Food Truck
131,Gagan Vihar,East District,110051,77.292236,28.644682,0,Ice Cream Shop,Arcade,Fast Food Restaurant,BBQ Joint,Light Rail Station
132,Rohini Sector 9,North District,110085,77.127455,28.717325,0,Ice Cream Shop,Basketball Court,Food,Shopping Mall,Dessert Shop
133,Sector 9,North District,110085,77.127455,28.717325,0,Ice Cream Shop,Basketball Court,Food,Shopping Mall,Dessert Shop
134,Sector 9 Rohini,North District,110085,77.127455,28.717325,0,Ice Cream Shop,Basketball Court,Food,Shopping Mall,Dessert Shop
135,Shanti Park Dwarka,South West District,110075,77.049432,28.584408,0,Ice Cream Shop,Circus,Spa,Light Rail Station,Dim Sum Restaurant
136,Sector 12,North District,110085,77.122771,28.728298,0,Ice Cream Shop,Clothing Store,BBQ Joint,Yoga Studio,Fabric Shop
137,Sector 2 Dwarka,South West District,110075,77.067843,28.598827,0,Ice Cream Shop,Dessert Shop,Bus Station,Yoga Studio,Fabric Shop
138,Sector 6 Dwarka Palam Vihar,South West District,110075,77.068549,28.594958,0,Ice Cream Shop,Dessert Shop,Chinese Restaurant,Hobby Shop,Yoga Studio
139,Rajouri Garden,West District,110027,77.124982,28.643074000000006,0,Ice Cream Shop,Gym,Park,Clothing Store,Electronics Store
140,Sukhdev Vihar,South East Delhi District,110025,77.274676,28.555180000000004,0,Ice Cream Shop,Gym / Fitness Center,Boat or Ferry,Garden,Ski Chalet
141,Dwarka Sub City,South West District,110045,77.073263,28.597807,0,Ice Cream Shop,Hobby Shop,Chinese Restaurant,Nightlife Spot,Event Space
142,Sector 1 Dwarka,South West District,110045,77.073263,28.597807,0,Ice Cream Shop,Hobby Shop,Chinese Restaurant,Nightlife Spot,Event Space
143,Zone L Dwarka,South West District,110045,77.073263,28.597807,0,Ice Cream Shop,Hobby Shop,Chinese Restaurant,Nightlife Spot,Event Space
144,Tagore Garden,West District,110027,77.110687,28.645861000000004,0,Indian Restaurant,Light Rail Station,Ice Cream Shop,Clothing Store,Food Truck
145,Mathura Road Sarita Vihar,South East Delhi District,110076,77.296958,28.515011,0,Indian Sweet Shop,Clothing Store,Shoe Store,Light Rail Station,Dim Sum Restaurant
146,East Of Kailash,South East Delhi District,110065,77.247987,28.555345999999997,0,Indie Movie Theater,Hot Dog Joint,Coffee Shop,Bar,Fast Food Restaurant
147,Residential Flat East Of Kailash,South East Delhi District,110065,77.247987,28.555345999999997,0,Indie Movie Theater,Hot Dog Joint,Coffee Shop,Bar,Fast Food Restaurant
148,Manglapuri,South West District,110045,77.087511,28.588744,0,Intersection,Museum,Bar,Men's Store,Yoga Studio
149,Manglapuri Village,South West District,110045,77.087511,28.588744,0,Intersection,Museum,Bar,Men's Store,Yoga Studio
150,Sector 26 Dwarka,South West District,110077,77.055081,28.545199,0,Jewelry Store,Farm,Yoga Studio,Event Space,Football Stadium
151,Pratap Khand,Shahdara District,110095,77.30823,28.672288,0,Juice Bar,Yoga Studio,Event Space,Football Stadium,Food Truck
152,Chhattarpur Enclave Phase1,South District,110074,77.191784,28.500326,0,Karaoke Bar,Gym,Yoga Studio,Event Space,Food Truck
153,Main Rajapuri Road,South West District,110059,77.056424,28.603495,0,Kids Store,Nightclub,Yoga Studio,Fabric Shop,Football Stadium
154,Bali Nagar,West District,110015,77.128918,28.653915,0,Light Rail Station,Chinese Restaurant,Shoe Store,Shopping Mall,Ice Cream Shop
155,Dwarka Sector 25,South West District,110077,77.054558,28.555591,0,Light Rail Station,Farm,Business Service,Shopping Mall,Dim Sum Restaurant
156,Sector 25 Dwarka,South West District,110077,77.054558,28.555591,0,Light Rail Station,Farm,Business Service,Shopping Mall,Dim Sum Restaurant
157,Residential Floor Tilak Nagar,West District,110018,77.088869,28.637747999999995,0,Light Rail Station,Pharmacy,Gym / Fitness Center,Mobile Phone Shop,Electronics Store
158,Tilak Nagar,West District,110018,77.088869,28.637747999999995,0,Light Rail Station,Pharmacy,Gym / Fitness Center,Mobile Phone Shop,Electronics Store
159,Residential Floor East Ram Nagar,East District,,77.270836,28.623835,0,Light Rail Station,River,French Restaurant,Food Truck,Food Court
160,Mahrauli,South East Delhi District,110044,77.301768,28.500353,0,Light Rail Station,Yoga Studio,Event Space,Football Stadium,Food Truck
161,Bees Sutri Harijan Basti,South District,110062,77.197623,28.50522,0,Lounge,Yoga Studio,Fried Chicken Joint,Football Stadium,Food Truck
162,Old Delhi,South East Delhi District,110025,77.289901,28.563077999999997,0,Metro Station,ATM,Indian Restaurant,Playground,Coffee Shop
163,Okhla,South East Delhi District,110025,77.289191,28.564066999999998,0,Metro Station,ATM,Playground,Chinese Restaurant,Coffee Shop
164,103 Sector Road,North District,110042,77.142806,28.735093,0,Metro Station,Yoga Studio,Fried Chicken Joint,Football Stadium,Food Truck
165,65 Sector Road,North District,110042,77.142685,28.734693,0,Metro Station,Yoga Studio,Fried Chicken Joint,Football Stadium,Food Truck
166,L Zone Dwarka Phase 2 Delhi,South West District,110078,77.019343,28.613626,0,Metro Station,Yoga Studio,Fried Chicken Joint,Football Stadium,Food Truck
167,Sector 103,North District,110042,77.142806,28.735093,0,Metro Station,Yoga Studio,Fried Chicken Joint,Football Stadium,Food Truck
168,Sector 18,North District,110089,77.137224,28.740602,0,Metro Station,Yoga Studio,Fried Chicken Joint,Football Stadium,Food Truck
169,Sector 18 Rohini,North District,110089,77.137224,28.740602,0,Metro Station,Yoga Studio,Fried Chicken Joint,Football Stadium,Food Truck
170,Sector-18 Rohini,North District,110089,77.137224,28.740602,0,Metro Station,Yoga Studio,Fried Chicken Joint,Football Stadium,Food Truck
171,Sector-19 Rohini,North District,110042,77.142842,28.734704,0,Metro Station,Yoga Studio,Fried Chicken Joint,Football Stadium,Food Truck
172,Siddharth Enclave,South West District,110059,77.064994,28.617713,0,Metro Station,Yoga Studio,Fried Chicken Joint,Football Stadium,Food Truck
173,Uttam Nagar East,South West District,110059,77.063775,28.619541,0,Metro Station,Yoga Studio,Fried Chicken Joint,Football Stadium,Food Truck
174,Abul Fazal Enclave Part 2 New Delhi,South East Delhi District,110025,77.299861,28.549208,0,Mobile Phone Shop,Park,Metro Station,Fast Food Restaurant,Yoga Studio
175,Mundka,West District,110041,77.030648,28.681933,0,Mobile Phone Shop,Train Station,Business Service,Yoga Studio,Fabric Shop
176,A Block Road,North West District,110083,77.094663,28.700281,0,Motorcycle Shop,Airport,Fabric Shop,French Restaurant,Football Stadium
177,Babarpur,Shahdara District,110032,77.279249,28.688690999999995,0,Motorcycle Shop,Park,Gift Shop,Fabric Shop,Football Stadium
178,Karawal Nagar,North East District,110094,77.268624,28.725454,0,Motorcycle Shop,Shopping Mall,Cricket Ground,Football Stadium,Food Truck
179,Pipal Wala Road,West District,110059,77.039184,28.620387,0,Motorcycle Shop,Yoga Studio,Event Space,Football Stadium,Food Truck
180,Rithala,North West District,110085,77.100659,28.718672,0,Motorcycle Shop,Yoga Studio,Event Space,Football Stadium,Food Truck
181,Ashram,South East Delhi District,110014,77.259447,28.578917,0,Moving Target,Garden Center,Bakery,Historic Site,Shopping Mall
182,Vinod Nagar East,East District,110091,77.307622,28.623101,0,Moving Target,Yoga Studio,Event Space,Food Truck,Food Court
183,Bhalswa,North District,110042,77.163174,28.742565,0,Music Venue,Yoga Studio,Event Space,Food Truck,Food Court
184,Bamnoli Dwarka Sector 28,South West District,110045,77.075086,28.596492,0,Nightlife Spot,Science Museum,Hobby Shop,Gym,Yoga Studio
185,Bamnoli Sector 28 Dwarka,South West District,110045,77.075086,28.596492,0,Nightlife Spot,Science Museum,Hobby Shop,Gym,Yoga Studio
186,Sector 28 Dwarka,South West District,110045,77.075086,28.596492,0,Nightlife Spot,Science Museum,Hobby Shop,Gym,Yoga Studio
187,Dwarka Sector 16 Main Road,South West District,110045,77.075058,28.59608,0,Nightlife Spot,Science Museum,Hobby Shop,Yoga Studio,Food Court
188,Jagdamba Vihar,South West District,110046,77.095706,28.60105,0,North Indian Restaurant,Entertainment Service,Food Truck,Food Court,Food & Drink Shop
189,Govind Puri,South East Delhi District,110019,77.264039,28.535546,0,Outlet Mall,Clothing Store,Burger Joint,Farmers Market,Yoga Studio
190,Govindpuri,South East Delhi District,110019,77.264039,28.535546,0,Outlet Mall,Clothing Store,Burger Joint,Farmers Market,Yoga Studio
191,Kalkaji Govindpuri,South East Delhi District,110019,77.264039,28.535546,0,Outlet Mall,Clothing Store,Burger Joint,Farmers Market,Yoga Studio
192,Burari,Central District,110084,77.199031,28.755099,0,Paper / Office Supplies Store,Yoga Studio,Entertainment Service,Food Truck,Food Court
193,Burari Garhi,Central District,110084,77.199031,28.755099,0,Paper / Office Supplies Store,Yoga Studio,Entertainment Service,Food Truck,Food Court
194,Gautam Nagar,South District,110049,77.211631,28.561382,0,Park,Bar,Yoga Studio,Fabric Shop,Football Stadium
195,Residential Flat Pocket D,South East Delhi District,110076,77.296619,28.531203,0,Park,Grocery Store,Yoga Studio,Event Space,Food Truck
196,Sarita Vihar,South East Delhi District,110076,77.294073,28.530896,0,Park,Grocery Store,Yoga Studio,Event Space,Food Truck
197,Kalyan Vihar,North District,110009,77.19743800000002,28.691047,0,Pet Store,Department Store,Food Truck,Bakery,Asian Restaurant
198,Bank Enclave,East District,110031,77.270898,28.642002,0,Pharmacy,Chinese Restaurant,Entertainment Service,Food Truck,Food Court
199,Sector 4,South District,110017,77.228379,28.524277,0,Pharmacy,Flea Market,Sandwich Place,Music Store,Cricket Ground
200,Sector 4 Road,South District,110017,77.228379,28.524277,0,Pharmacy,Flea Market,Sandwich Place,Music Store,Cricket Ground
201,Vishwakarma Park,East District,110092,77.273982,28.63599,0,Pharmacy,Food Truck,Yoga Studio,Entertainment Service,Food Court
202,Vasant Enclave,New Delhi District,110057,77.159724,28.574318,0,Pharmacy,Recreation Center,Playground,Salad Place,Food & Drink Shop
203,Vasant Enclave Road,New Delhi District,110057,77.159724,28.574318,0,Pharmacy,Recreation Center,Playground,Salad Place,Food & Drink Shop
204,Navin Shahdara,Shahdara District,,77.294197,28.671679,0,Platform,Entertainment Service,Food Truck,Food Court,Food & Drink Shop
205,Santnagar,Central District,110084,77.20271,28.740852,0,Platform,Entertainment Service,Food Truck,Food Court,Food & Drink Shop
206,Shahdara,Shahdara District,110032,77.294197,28.671679,0,Platform,Entertainment Service,Food Truck,Food Court,Food & Drink Shop
207,Jain Colony,Central District,110007,77.194123,28.685289,0,Playground,Yoga Studio,Entertainment Service,Food Truck,Food Court
208,Mathura Road,New Delhi District,110001,77.24003500000002,28.612237999999998,0,Pool,Hockey Arena,Café,Cafeteria,Historic Site
209,Sitapuri,South West District,110059,77.075381,28.607997,0,Pool,Market,Business Service,Yoga Studio,Fabric Shop
210,Bank Colony,Shahdara District,110093,77.311683,28.70331,0,Print Shop,Tourist Information Center,Yoga Studio,Entertainment Service,Food Truck
211,Freedom Fighter Enclave,South District,110068,77.19899,28.509987,0,Pub,Asian Restaurant,Italian Restaurant,Mediterranean Restaurant,Yoga Studio
212,Freedom Fighter Vihar,South District,110068,77.202062,28.510955,0,Pub,Bakery,Asian Restaurant,Mediterranean Restaurant,Yoga Studio
213,Freedom Fighters Enclave,South District,110068,77.202062,28.510955,0,Pub,Bakery,Asian Restaurant,Mediterranean Restaurant,Yoga Studio
214,Sector 30,North District,110042,77.082597,28.755792,0,Public Bathroom,Yoga Studio,Entertainment Service,Food Truck,Food Court
215,Najafgarh,South West District,110043,76.980431,28.613304,0,Rental Service,Indie Movie Theater,Food & Drink Shop,Yoga Studio,Food Truck
216,Delhi Cantonment,New Delhi District,,77.133538,28.584669,0,Restaurant,Yoga Studio,Event Space,Food Truck,Food Court
217,Kondali Main,East District,110096,77.324394,28.614001,0,Restaurant,Yoga Studio,Event Space,Food Truck,Food Court
218,Pocket 2 Sector D,East District,110096,77.327863,28.613827,0,Restaurant,Yoga Studio,Event Space,Food Truck,Food Court
219,Sector 8B,East District,110096,77.328481,28.612632,0,Restaurant,Yoga Studio,Event Space,Food Truck,Food Court
220,Vasant Vihar C Block,New Delhi District,110057,77.15832,28.567879,0,Salad Place,Chinese Restaurant,Market,Gym,Yoga Studio
221,Sidharth Ext,South East Delhi District,110014,77.255716,28.579252,0,Shopping Mall,Asian Restaurant,Event Space,Football Stadium,Food Truck
222,Govindpura,East District,110051,77.284887,28.645781,0,Shopping Mall,Clothing Store,BBQ Joint,Fabric Shop,Football Stadium
223,Govindpura Old,East District,110051,77.285121,28.645439,0,Shopping Mall,Clothing Store,BBQ Joint,Fabric Shop,Football Stadium
224,New Govindpura,East District,110051,77.284887,28.645781,0,Shopping Mall,Clothing Store,BBQ Joint,Fabric Shop,Football Stadium
225,Baldev Park East,East District,110051,77.288968,28.647966,0,Shopping Mall,Clothing Store,Yoga Studio,Event Space,Food Truck
226,78 Sector 6 Road,North West District,110085,77.11147,28.71291,0,Shopping Mall,Department Store,Multiplex,Rest Area,Yoga Studio
227,Shakurpur,North West District,110034,77.141606,28.682335,0,Shopping Mall,Food Truck,Camera Store,Yoga Studio,Event Space
228,Sunlight Colony,South East Delhi District,110014,77.258301,28.576913,0,Shopping Mall,Moving Target,Bakery,Neighborhood,Football Stadium
229,Block Sd Delhi,North West District,110034,77.145981,28.696568000000003,0,Shopping Mall,Pizza Place,Playground,Snack Place,Arts & Crafts Store
230,Grand Trunk Road,Shahdara District,110031,77.26454,28.670169,0,Shopping Mall,Platform,Train Station,Entertainment Service,Food Truck
231,New Layal Pur,North East District,110053,77.267115,28.674808,0,Shopping Mall,Tourist Information Center,Event Space,Football Stadium,Food Truck
232,Shakarpur,East District,110092,77.279287,28.626963999999997,0,Shopping Mall,Train Station,Gym,Snack Place,Coffee Shop
233,Moti Bagh South,New Delhi District,110021,77.1726,28.58055,0,Shopping Plaza,Park,Asian Restaurant,Arcade,South Indian Restaurant
234,Dwarka 8 Sector,South West District,110077,77.073874,28.575746999999996,0,Smoothie Shop,Food Truck,Park,Yoga Studio,Event Space
235,Sector 8 Dwarka Block B,South West District,110077,77.073874,28.575746999999996,0,Smoothie Shop,Food Truck,Park,Yoga Studio,Event Space
236,Sector-8 Dwarka,South West District,110077,77.073874,28.575746999999996,0,Smoothie Shop,Food Truck,Park,Yoga Studio,Event Space
237,Commercial Shop Karol Bagh,Central District,110005,77.192229,28.652979,0,Snack Place,Ice Cream Shop,Dessert Shop,Coffee Shop,Asian Restaurant
238,Karol Bagh,Central District,110005,77.192229,28.652979,0,Snack Place,Ice Cream Shop,Dessert Shop,Coffee Shop,Asian Restaurant
239,Maya Enclave,West District,110064,77.108939,28.618855,0,Snack Place,Yoga Studio,Fried Chicken Joint,Football Stadium,Food Truck
240,Sector-D Vasant Kunj,South District,110070,77.1461,28.521405,0,Snack Place,Yoga Studio,Fried Chicken Joint,Football Stadium,Food Truck
241,Rohini Sector 16,North District,110089,77.122823,28.735915,0,Spa,Burger Joint,Yoga Studio,French Restaurant,Food Truck
242,Sadh Nagar Palam Colony,South West District,110045,77.0938,28.591095,0,Sporting Goods Shop,Yoga Studio,Fried Chicken Joint,Football Stadium,Food Truck
243,Inderpuri,New Delhi District,110012,77.147498,28.631922,0,Stables,Yoga Studio,Fried Chicken Joint,Football Stadium,Food Truck
244,Alaknanda Gangotri Enclave,South East Delhi District,110019,77.252141,28.524453,0,Steakhouse,Food & Drink Shop,Coffee Shop,Market,New American Restaurant
245,Godavari Apartments,South East Delhi District,110019,77.253432,28.526516000000004,0,Steakhouse,Food & Drink Shop,Coffee Shop,Market,New American Restaurant
246,Indraprastha,New Delhi District,110013,77.251556,28.61453,0,Tea Room,Train Station,Entertainment Service,Football Stadium,Food Truck
247,Kishangarh Mehrauli Road,South District,110030,77.179337,28.521341,0,Thai Restaurant,Market,Restaurant,Yoga Studio,Event Space
248,Mehrauli,South District,110030,77.179337,28.521341,0,Thai Restaurant,Market,Restaurant,Yoga Studio,Event Space
249,Mehrauli Village,South District,110030,77.179337,28.521341,0,Thai Restaurant,Market,Restaurant,Yoga Studio,Event Space
250,Residential Flat Mehrauli,South District,110030,77.179337,28.521341,0,Thai Restaurant,Market,Restaurant,Yoga Studio,Event Space
251,Aya Nagar,South District,110047,77.133169,28.475084,0,Tourist Information Center,Yoga Studio,Event Space,Football Stadium,Food Truck
252,Partap Nagar,Shahdara District,110093,77.307316,28.708526,0,Tourist Information Center,Yoga Studio,Event Space,Football Stadium,Food Truck
253,Sector 111,North West District,110086,77.051255,28.736906,0,Tourist Information Center,Yoga Studio,Event Space,Football Stadium,Food Truck
254,Civil Lines,Central District,110054,77.21888,28.680644,0,Trail,Burger Joint,Candy Store,Yoga Studio,Event Space
255,Badarpur,South East Delhi District,110044,77.300538,28.503489,0,Train Station,Light Rail Station,Spa,Yoga Studio,Food Truck
256,Shadipur,West District,110008,77.151937,28.652243,0,Train Station,Moving Target,Metro Station,Yoga Studio,Event Space
257,B4 Block,North East District,110053,77.266174,28.699916,0,Weight Loss Center,Men's Store,Yoga Studio,Event Space,Football Stadium
258,Gt Road,North District,110033,77.190382,28.692501,0,Weight Loss Center,Yoga Studio,Event Space,Football Stadium,Food Truck
259,Keshavpuram,North West District,110035,77.16071,28.688039,0,Women's Store,Department Store,Convenience Store,Basketball Court,Fabric Shop
260,Sheikh Sarai Phase2 New Delhi,South District,110017,77.228266,28.534073,0,Yoga Studio,Trail,Clothing Store,Fast Food Restaurant,Entertainment Service
261,Chirag Delhi,South District,110017,77.228025,28.538589,0,Yoga Studio,Trail,Gym,Lounge,Event Space
262,Chirag Dilli,South District,110017,77.228025,28.538589,0,Yoga Studio,Trail,Gym,Lounge,Event Space
263,Sangam Vihar,South East Delhi District,110080,77.244059,28.500277,1,ATM,Athletics & Sports,Department Store,Dessert Shop,French Restaurant
264,Bindapur,South West District,110059,77.068586,28.610709,1,ATM,Bookstore,Department Store,Farm,French Restaurant
265,Chhawla,South West District,110071,77.002434,28.561283,1,ATM,Event Space,Football Stadium,Food Truck,Food Court
266,Dwarka 29 Sector,South West District,110075,77.050916,28.57616,1,ATM,Event Space,Football Stadium,Food Truck,Food Court
267,Dwarka Sector 17,South West District,110078,77.028044,28.591823,1,ATM,Event Space,Football Stadium,Food Truck,Food Court
268,Nangloi,West District,110041,77.065816,28.672178,1,ATM,Event Space,Football Stadium,Food Truck,Food Court
269,Pocket A Sector 17 Dwarka,South West District,110078,77.028044,28.591823,1,ATM,Event Space,Football Stadium,Food Truck,Food Court
270,Puth Khurd Village,North District,110039,77.04933,28.770351,1,ATM,Event Space,Football Stadium,Food Truck,Food Court
271,Sector 12 Pocket 7,North District,110040,77.099224,28.840909,1,ATM,Event Space,Football Stadium,Food Truck,Food Court
272,Sector 17 Dwarka,South West District,110078,77.028044,28.591823,1,ATM,Event Space,Football Stadium,Food Truck,Food Court
273,Sector 18B Dwarka,South West District,110078,77.03178,28.585601,1,ATM,Event Space,Football Stadium,Food Truck,Food Court
274,Sector 29 Dwarka,South West District,110075,77.050916,28.57616,1,ATM,Event Space,Football Stadium,Food Truck,Food Court
275,Sector4Pkt 1,New Delhi District,110038,77.106693,28.514217,1,ATM,Event Space,Football Stadium,Food Truck,Food Court
276,Tri Nagar,North West District,110035,77.156999,28.678393,1,ATM,Event Space,Football Stadium,Food Truck,Food Court
277,V E E R Apartments Road,North East District,110053,77.265926,28.688658,1,ATM,Event Space,Football Stadium,Food Truck,Food Court
278,Vinod Nagar North,East District,110092,77.290015,28.626427,1,ATM,Event Space,Football Stadium,Food Truck,Food Court
279,Wazirabad,Central District,110084,77.224245,28.724929,1,ATM,Event Space,Football Stadium,Food Truck,Food Court
280,West Punjabi Bagh,West District,,77.052814,28.663638,1,ATM,Event Space,Football Stadium,Food Truck,Food Court
281,Sector-21 Rohini,North West District,110086,77.067062,28.713045,1,ATM,Flea Market,Event Space,Football Stadium,Food Truck
282,Pochanpur Colony,South West District,110077,77.047446,28.561103,1,ATM,Home Service,Health Food Store,Department Store,Event Space
283,Sector 17,North District,110089,77.115233,28.741052,1,ATM,Juice Bar,Event Space,Football Stadium,Food Truck
284,109 Sector 21 Road,North West District,110086,77.06527,28.711593,1,ATM,Lake,Event Space,Football Stadium,Food Truck
285,Delhi Haridwar Road,Central District,110013,77.252394,28.627874,1,ATM,Nightclub,Event Space,Food Truck,Food Court
286,Jammu Delhi Road,Central District,110013,77.252394,28.627874,1,ATM,Nightclub,Event Space,Food Truck,Food Court
287,Devli,South District,110062,77.23216,28.503704,1,ATM,Trail,Event Space,Football Stadium,Food Truck
288,Devli Export Enclave,South District,110062,77.23216,28.503704,1,ATM,Trail,Event Space,Football Stadium,Food Truck
289,Devli Extention,South District,110062,77.23216,28.503704,1,ATM,Trail,Event Space,Football Stadium,Food Truck
290,Bhagwati Vihar,West District,110059,77.06236,28.612684,2,ATM,Mobile Phone Shop,Indian Restaurant,Department Store,Farm
291,Batla House New Delhi,South East Delhi District,110025,77.286619,28.567446,2,Indian Restaurant,Afghan Restaurant,Fabric Shop,French Restaurant,Football Stadium
292,89 Sector 22 Road,North West District,110086,77.062444,28.718233,2,Indian Restaurant,Bakery,Restaurant,French Restaurant,Food Truck
293,Pankha Road,South West District,110046,77.103424,28.608029,2,Indian Restaurant,Café,Football Stadium,Food Truck,Food Court
294,Shyam Enclave,Shahdara District,110092,77.305415,28.654006000000003,2,Indian Restaurant,Café,Multiplex,Shopping Mall,Pizza Place
295,Shankar Garden,West District,110018,77.071521,28.629272000000004,2,Indian Restaurant,Café,Playground,Outlet Mall,Yoga Studio
296,Uttam Nagar Subhash Park Extn,West District,110059,77.055123,28.61231,2,Indian Restaurant,Cheese Shop,Event Space,Football Stadium,Food Truck
297,Arjun Nagar,South District,110029,77.19800199999999,28.561888000000003,2,Indian Restaurant,Coffee Shop,Restaurant,Mexican Restaurant,Jazz Club
298,Paschim Vihar A 1 Block,West District,110063,77.096991,28.678813,2,Indian Restaurant,Convenience Store,Event Space,Football Stadium,Food Truck
299,Sadar Bazaar,New Delhi District,110010,77.120554,28.591759,2,Indian Restaurant,Convenience Store,Event Space,Football Stadium,Food Truck
300,Jasola Sector 8,South East Delhi District,110025,77.296658,28.544643,2,Indian Restaurant,Department Store,Event Space,Football Stadium,Food Truck
301,Jasola Vihar Sector 8 Road,South East Delhi District,110025,77.296658,28.544643,2,Indian Restaurant,Department Store,Event Space,Football Stadium,Food Truck
302,Vishwas Park,West District,110059,77.057041,28.611804999999997,2,Indian Restaurant,Diner,Bakery,Cheese Shop,Fabric Shop
303,Vishwas Park Extn Uttam Nagar,West District,110059,77.057957,28.610002,2,Indian Restaurant,Diner,Bakery,Cheese Shop,Fabric Shop
304,Mayur Vihar Pocket F,Shahdara District,110095,77.317982,28.680359,2,Indian Restaurant,Diner,Market,Ice Cream Shop,Dessert Shop
305,Khushi Ram Park Param Puri,West District,110059,77.051712,28.616921,2,Indian Restaurant,Event Space,Football Stadium,Food Truck,Food Court
306,Om Vihar Extn Delhi,West District,110059,77.050624,28.617795,2,Indian Restaurant,Event Space,Football Stadium,Food Truck,Food Court
307,Om Vihar Extn Om Vihar,West District,110059,77.050624,28.617795,2,Indian Restaurant,Event Space,Football Stadium,Food Truck,Food Court
308,Zakir Nagar,South East Delhi District,110025,77.279498,28.567269999999997,2,Indian Restaurant,Event Space,Football Stadium,Food Truck,Food Court
309,Dwarka Sector 12 Pocket 6,South West District,110078,77.044647,28.592126000000004,2,Indian Restaurant,Farmers Market,Market,Restaurant,Shopping Mall
310,Pocket 7 Dwarka Sector 12,South West District,110078,77.043701,28.591314,2,Indian Restaurant,Farmers Market,Market,Restaurant,Shopping Mall
311,10 Sector Dwarka,South West District,110075,77.057569,28.590611,2,Indian Restaurant,Fast Food Restaurant,Event Space,Football Stadium,Food Truck
312,Dwarka 10 Sector,South West District,110075,77.057569,28.590611,2,Indian Restaurant,Fast Food Restaurant,Event Space,Football Stadium,Food Truck
313,Dwarka Sec6 Market,South West District,110075,77.057679,28.590629,2,Indian Restaurant,Fast Food Restaurant,Event Space,Football Stadium,Food Truck
314,Sector 5 Dwarka,South West District,110075,77.057337,28.59772,2,Indian Restaurant,Fast Food Restaurant,Restaurant,Cricket Ground,Food Truck
315,Sector-16 Dwarka,South West District,110075,77.057337,28.59772,2,Indian Restaurant,Fast Food Restaurant,Restaurant,Cricket Ground,Food Truck
316,10 Dwarka Sector 9 Road,South West District,110077,77.065129,28.57934,2,Indian Restaurant,Food Truck,Event Space,Football Stadium,Food Court
317,4 Dwarka Sector 9 Road,South West District,110077,77.065129,28.57934,2,Indian Restaurant,Food Truck,Event Space,Football Stadium,Food Court
318,Dwarka Sector 9,South West District,110077,77.065129,28.57934,2,Indian Restaurant,Food Truck,Event Space,Football Stadium,Food Court
319,Dwarka Sector 9 Road,South West District,110077,77.065129,28.57934,2,Indian Restaurant,Food Truck,Event Space,Football Stadium,Food Court
320,Rajpur,South District,110068,77.190688,28.49442,2,Indian Restaurant,Food Truck,Event Space,Football Stadium,Food Court
321,Rajpur Khurd Village,South District,110068,77.190688,28.49442,2,Indian Restaurant,Food Truck,Event Space,Football Stadium,Food Court
322,Sector 9 Dwarka,South West District,110077,77.065129,28.57934,2,Indian Restaurant,Food Truck,Event Space,Football Stadium,Food Court
323,Karkardooma,Shahdara District,110092,77.302592,28.649875,2,Indian Restaurant,Food Truck,Plaza,Entertainment Service,Food Court
324,Begampur Park,West District,110063,77.094644,28.673665,2,Indian Restaurant,Garden,Fried Chicken Joint,Football Stadium,Food Truck
325,Dlf City Phase 3 Road,West District,110059,77.054035,28.625796999999995,2,Indian Restaurant,Health & Beauty Service,Train Station,Food Truck,Food Court
326,Deepali,North West District,110034,77.118494,28.694694,2,Indian Restaurant,Hotel,Lake,Diner,Bus Station
327,Lajpat Nagar Iv,South East Delhi District,110024,77.240746,28.56298,2,Indian Restaurant,Market,Café,Fast Food Restaurant,Bank
328,Dwarka Sector 11 Pocket 4,South West District,110075,77.043674,28.587676,2,Indian Restaurant,Market,French Restaurant,Football Stadium,Food Truck
329,Katwaria Sarai,South District,110016,77.18800799999998,28.539874,2,Indian Restaurant,Modern European Restaurant,Hotel,Restaurant,Moroccan Restaurant
330,Block A1 Chattarpur,South District,110074,77.184047,28.494484,2,Indian Restaurant,Pub,Restaurant,Resort,Food Truck
331,Netaji Subash Marg,Central District,110002,77.240409,28.645492,2,Indian Restaurant,Restaurant,Road,Bank,Yoga Studio
332,Bhagat Chandra Hospital,South West District,110045,77.081135,28.593251999999996,2,Indian Restaurant,Science Museum,Bank,French Restaurant,Food Truck
333,Jamia Nagar,South East Delhi District,110025,77.281419,28.560838999999998,3,ATM,Asian Restaurant,Chinese Restaurant,Athletics & Sports,Pizza Place
334,Janakpuri,West District,110058,77.088521,28.621667,3,ATM,Café,Ice Cream Shop,Gym / Fitness Center,Food Truck
335,Loni,Shahdara District,110032,77.291986,28.687996,3,ATM,Clothing Store,Men's Store,Indian Restaurant,Pizza Place
336,Bhagwati Garden,West District,110059,77.033078,28.621219000000004,3,ATM,Indian Restaurant,Light Rail Station,Fast Food Restaurant,Pizza Place
337,Sewak Park,West District,110059,77.033562,28.617788,3,ATM,Indian Restaurant,Light Rail Station,Fast Food Restaurant,Pizza Place
338,Jagriti Enclave Shreshtha Vihar,Shahdara District,110092,77.316371,28.655879,3,ATM,Italian Restaurant,Café,Indian Restaurant,Hotel Bar
339,Sushant Lok Delhi,Shahdara District,110092,77.316155,28.657155,3,ATM,Italian Restaurant,Café,Indian Restaurant,Hotel Bar
340,Pocket 8 Sector C,South District,110070,77.141515,28.537006,3,ATM,Juice Bar,Pizza Place,Park,Spa
341,Ca Apartments,West District,110063,77.102869,28.671059000000007,3,ATM,Sandwich Place,Market,Multicuisine Indian Restaurant,Department Store
342,Sector 19B,West District,110063,77.101017,28.667179,3,ATM,Sandwich Place,Multicuisine Indian Restaurant,Pizza Place,Coffee Shop
343,Pontoon Bridge,North East District,110054,77.232257,28.70587,3,Asian Restaurant,Coffee Shop,Café,Yoga Studio,Fabric Shop
344,Greater Kailash Ii,South East Delhi District,110048,77.241845,28.53488300000001,3,Asian Restaurant,Indian Restaurant,Restaurant,Chinese Restaurant,Italian Restaurant
345,Ahinsa Vihar Road,North District,110085,77.123604,28.712273,3,Basketball Court,Café,Yoga Studio,Fried Chicken Joint,Football Stadium
346,Kiran Garden,West District,110059,77.046439,28.619453000000004,3,Bookstore,Café,Pet Store,Football Stadium,Food Truck
347,South Anarkali Delhi,South District,,77.227055,28.515603,3,Boutique,Plaza,Asian Restaurant,Café,Indian Restaurant
348,South Delhi,South District,,77.227055,28.515603,3,Boutique,Plaza,Asian Restaurant,Café,Indian Restaurant
349,South Ex,South District,,77.227055,28.515603,3,Boutique,Plaza,Asian Restaurant,Café,Indian Restaurant
350,Block A,West District,110018,77.10177799999998,28.644128,3,Bowling Alley,Indian Restaurant,Fast Food Restaurant,Furniture / Home Store,Shopping Mall
351,Roop Nagar,Central District,110007,77.20039,28.684983999999996,3,Breakfast Spot,Pizza Place,Playground,Miscellaneous Shop,Event Space
352,Pocket 10 Sector B,South District,110070,77.153659,28.532418,3,Café,Arcade,Thai Restaurant,Clothing Store,Fabric Shop
353,Pocket 9 Sector B,New Delhi District,110070,77.152256,28.531719,3,Café,Arcade,Thai Restaurant,Clothing Store,Fabric Shop
354,Sector B Pocket 10,South District,110070,77.153659,28.532418,3,Café,Arcade,Thai Restaurant,Clothing Store,Fabric Shop
355,Paryatan Vihar,East District,110096,77.313833,28.600932,3,Café,Bakery,Market,Gym,Yoga Studio
356,New Rajendra Nagar,Central District,110060,77.17996,28.636315000000003,3,Café,Bed & Breakfast,Arcade,Market,Sporting Goods Shop
357,Sector 4 Dwarka,West District,110078,77.048068,28.602437,3,Café,Chinese Restaurant,Nightclub,Yoga Studio,Food Truck
358,Sector-7 Rohini,North West District,110085,77.118426,28.708924,3,Café,Chinese Restaurant,Yoga Studio,Football Stadium,Food Truck
359,Geetanjali Enclave,South District,110017,77.201991,28.530190999999995,3,Café,Coffee Shop,Juice Bar,Metro Station,Yoga Studio
360,Nelson Mandela Marg,New Delhi District,110067,77.16635900000001,28.55343,3,Café,College Cafeteria,Restaurant,Spa,Coffee Shop
361,Meera Bagh,West District,110087,77.089295,28.658887000000004,3,Café,Convenience Store,Tourist Information Center,Yoga Studio,Food Truck
362,Janakpuri B1 Market,West District,110058,77.091333,28.628996,3,Café,Department Store,Farmers Market,Gym,Fabric Shop
363,Niti Bagh,South District,110049,77.215324,28.558990999999995,3,Café,Dessert Shop,Park,Metro Station,Music Venue
364,Ishwar Nagar,South East Delhi District,110065,77.26795599999997,28.559345000000004,3,Café,Hotel,Middle Eastern Restaurant,Fast Food Restaurant,Indian Restaurant
365,Navjeevan Vihar,South District,110017,77.199801,28.533019000000003,3,Café,Hotel,Pub,Golf Course,Restaurant
366,Nawada Sainik Nagar,West District,110059,77.041746,28.616509,3,Café,IT Services,Yoga Studio,Football Stadium,Food Truck
367,Antriksh Bhawan,New Delhi District,110001,77.222853,28.628719999999998,3,Café,Indian Restaurant,Bistro,Fast Food Restaurant,Beer Garden
368,New Friends Colony,South East Delhi District,110025,77.27041000000001,28.565556000000008,3,Café,Indian Restaurant,Hotel,Pizza Place,Chinese Restaurant
369,Lajpat Nagar Ii,South East Delhi District,110024,77.242302,28.569780999999992,3,Café,Indian Restaurant,Market,Fast Food Restaurant,Donut Shop
370,Police Lines,North District,110009,77.202464,28.697125,3,Café,Light Rail Station,Restaurant,North Indian Restaurant,Chinese Restaurant
371,Masjid Moth Village,South District,110049,77.21718699999998,28.561161,3,Café,Metro Station,Shopping Mall,Park,Market
372,Anand Lok,South District,110049,77.218116,28.557200999999996,3,Café,Other Great Outdoors,Hotel,Dessert Shop,Golf Course
373,Residential Flat Pocket A,South East Delhi District,110076,77.288388,28.534737,3,Café,Pizza Place,Breakfast Spot,Cricket Ground,Food Truck
374,Hastsal,West District,110059,77.060879,28.636428999999996,3,Café,Pizza Place,Park,Fast Food Restaurant,Market
375,Lig Flats,West District,110059,77.06070999999999,28.634795,3,Café,Pizza Place,Park,Fast Food Restaurant,Market
376,Madangir,South District,110062,77.228583,28.519654,3,Café,Plaza,Flea Market,Pharmacy,Yoga Studio
377,Chattarpur Enclave Phase 2,South District,110074,77.187847,28.500421,3,Café,Pub,Resort,Yoga Studio,Food Court
378,Hari Nagar,West District,110064,77.111014,28.624511,3,Café,Snack Place,Arcade,Yoga Studio,Football Stadium
379,Sector C Vasant Kunj,South District,110070,77.14597200000001,28.534377000000003,3,Café,Spa,BBQ Joint,Park,Gastropub
380,Ramesh Nagar,West District,110015,77.130681,28.649317999999997,3,Chinese Restaurant,Pizza Place,Metro Station,Dessert Shop,Indian Restaurant
381,Ber Sarai,New Delhi District,110016,77.180933,28.549408,3,Clothing Store,Shopping Mall,Airport Food Court,Hotel,Fast Food Restaurant
382,Igi Airport,New Delhi District,110037,77.08437000000002,28.555013000000002,3,Coffee Shop,Airport Lounge,Airport Service,Café,Smoke Shop
383,Shahpur Jat,South District,110049,77.21040700000002,28.549127,3,Coffee Shop,Arcade,Bar,Australian Restaurant,Chinese Restaurant
384,Kamla Nagar,Central District,110007,77.20362700000001,28.682824999999994,3,Coffee Shop,Café,Breakfast Spot,Fast Food Restaurant,Chinese Restaurant
385,Guru Angad Nagar,South East Delhi District,110019,77.25394600000003,28.549345000000006,3,Coffee Shop,Food,Fast Food Restaurant,Convenience Store,Donut Shop
386,Paryavaran Complex,South District,110068,77.203128,28.516060000000003,3,Coffee Shop,Indian Restaurant,Mediterranean Restaurant,Asian Restaurant,Pub
387,Paryavaran Complex Main,South District,110068,77.203128,28.516060000000003,3,Coffee Shop,Indian Restaurant,Mediterranean Restaurant,Asian Restaurant,Pub
388,South Extension 2,South East Delhi District,110049,77.22091500000002,28.566667999999996,3,Coffee Shop,Indian Restaurant,Pizza Place,Market,Bakery
389,Saiyad Ul Ajaib Village,South District,110030,77.200847,28.518080000000005,3,Coffee Shop,Indian Restaurant,Restaurant,Bakery,Café
390,Malviya Nagar,South District,110017,77.210245,28.534883,3,Coffee Shop,Pizza Place,Chinese Restaurant,Sandwich Place,Miscellaneous Shop
391,Shivalik,South District,110017,77.20652500000003,28.53229800000001,3,Coffee Shop,Pizza Place,Italian Restaurant,Café,Bookstore
392,Mianwali Nagar Peera Garhi,West District,110056,77.096072,28.679509,3,Convenience Store,Indian Restaurant,Train Station,Restaurant,Event Space
393,Abul Fazal Enclave Jamia Nagar,South East Delhi District,110025,77.297802,28.555496,3,Department Store,Arcade,Indian Restaurant,Playground,Kebab Restaurant
394,Mahavir Enclave,South West District,110045,77.08236,28.596709,3,Department Store,Indian Restaurant,Science Museum,Bank,Fast Food Restaurant
395,Mahavir Enclave Bengali Colony,South West District,110045,77.08236,28.596709,3,Department Store,Indian Restaurant,Science Museum,Bank,Fast Food Restaurant
396,Shyam Vihar Phase1,South West District,110078,77.02922,28.606015,3,Diner,Chinese Restaurant,Fast Food Restaurant,Yoga Studio,Fabric Shop
397,Panchsheel Enclave,South District,110017,77.229476,28.543794,3,Event Space,Lounge,Indian Restaurant,Gym,Food Truck
398,Ashok Nagar,West District,110018,77.101596,28.635974,3,Fast Food Restaurant,Café,Ice Cream Shop,Yoga Studio,Football Stadium
399,Shaheen Bagh New Delhi,South East Delhi District,110025,77.302624,28.544888000000004,3,Fast Food Restaurant,Hotel,Diner,Park,Market
400,Kalindi Kunj Road,South East Delhi District,110076,77.310302,28.543383,3,Fast Food Restaurant,Hotel,Light Rail Station,Yoga Studio,Entertainment Service
401,Abul Fazal Enclave,South East Delhi District,110025,77.307199,28.54637,3,Fast Food Restaurant,Hotel,Park,Yoga Studio,Entertainment Service
402,Pocket 2 Sector 6 Dwarka,South West District,110075,77.059791,28.59122,3,Fast Food Restaurant,Indian Restaurant,Coffee Shop,Event Space,Football Stadium
403,Kalkaji,South East Delhi District,110019,77.255747,28.541421000000007,3,Fast Food Restaurant,Indian Restaurant,Coffee Shop,Sandwich Place,Market
404,Kalkaji Extension,South East Delhi District,110019,77.255747,28.541421000000007,3,Fast Food Restaurant,Indian Restaurant,Coffee Shop,Sandwich Place,Market
405,Kalkaji Flyover,South East Delhi District,110019,77.255747,28.541421000000007,3,Fast Food Restaurant,Indian Restaurant,Coffee Shop,Sandwich Place,Market
406,Kalkaji Main,South East Delhi District,110019,77.255747,28.541421000000007,3,Fast Food Restaurant,Indian Restaurant,Coffee Shop,Sandwich Place,Market
407,Sector 14 Dwarka,South West District,110078,77.027647,28.601374,3,Fast Food Restaurant,Light Rail Station,Yoga Studio,Event Space,Football Stadium
408,Preet Vihar,East District,110092,77.294735,28.639118,3,Fast Food Restaurant,Pizza Place,Arcade,Light Rail Station,Chinese Restaurant
409,Vikas Puri,West District,110018,77.075727,28.638774,3,Fast Food Restaurant,Pizza Place,Café,Ice Cream Shop,Airport Food Court
410,Vikaspuri,West District,110018,77.075727,28.638774,3,Fast Food Restaurant,Pizza Place,Café,Ice Cream Shop,Airport Food Court
411,Vikaspuri Flyover,West District,110018,77.075727,28.638774,3,Fast Food Restaurant,Pizza Place,Café,Ice Cream Shop,Airport Food Court
412,Kundli,North West District,110034,77.120157,28.69801,3,Fast Food Restaurant,Pizza Place,Shopping Mall,Restaurant,Cosmetics Shop
413,Dr Ambedkar Colony,South District,110030,77.180133,28.50521,3,Flea Market,Public Art,Arts & Crafts Store,Café,Yoga Studio
414,Shakti Nagar,Central District,110007,77.195243,28.67965,3,Fried Chicken Joint,Café,Playground,Concert Hall,Food Truck
415,Dwarka Sector 13,South West District,110078,77.03614600000002,28.599382999999996,3,Fried Chicken Joint,Electronics Store,Café,Light Rail Station,Asian Restaurant
416,Sector 13 Dwarka,South West District,110078,77.03614600000002,28.599382999999996,3,Fried Chicken Joint,Electronics Store,Café,Light Rail Station,Asian Restaurant
417,Noor Nagar,South East Delhi District,110025,77.287111,28.557413,3,Fried Chicken Joint,Hostel,Café,Tea Room,Dessert Shop
418,East Delhi,East District,,77.285827,28.63592899999999,3,Gift Shop,Gym,Office,Shopping Mall,Multiplex
419,Gulab Bagh,East District,110092,77.285144,28.636365000000005,3,Gift Shop,Shopping Mall,Liquor Store,Mediterranean Restaurant,Arcade
420,Laxmi Nagar,East District,110092,77.283208,28.635202,3,Gift Shop,Shopping Mall,Liquor Store,Mediterranean Restaurant,Arcade
421,Patparganj,East District,110091,77.291812,28.60963,3,Gym / Fitness Center,Coffee Shop,Bakery,Snack Place,Department Store
422,Siddhartha Enclave,South East Delhi District,110014,77.25860899999999,28.574015,3,Gym / Fitness Center,Indian Restaurant,Sculpture Garden,Hotel,Bakery
423,Kailash Colony,South District,110048,77.24069000000001,28.554173,3,Hotel,Department Store,Light Rail Station,Bar,Dessert Shop
424,Greater Kailash Enclave Ii,South East Delhi District,110048,77.238547,28.539217000000004,3,Ice Cream Shop,Café,Restaurant,Park,Sandwich Place
425,Dwarka Sector 11 Pocket 3,South West District,110075,77.047071,28.585082,3,Ice Cream Shop,Light Rail Station,Spa,Indian Restaurant,Hotel
426,Sector 11 Dwarka Pocket 2,South West District,110075,77.045946,28.585773,3,Ice Cream Shop,Light Rail Station,Spa,Indian Restaurant,Hotel
427,C R Park,South East Delhi District,110019,77.253064,28.544341,3,Ice Cream Shop,Plaza,Market,Fast Food Restaurant,Food
428,Naharpur Village,North West District,110085,77.115124,28.703462,3,Ice Cream Shop,Shopping Mall,Pizza Place,Fast Food Restaurant,Multiplex
429,Baljeet Nagar,West District,110008,77.15715,28.653044999999995,3,Indian Restaurant,ATM,Café,Bus Stop,Light Rail Station
430,Mayur Vihar,East District,110091,77.30118800000001,28.607676,3,Indian Restaurant,Athletics & Sports,Flower Shop,Gym / Fitness Center,Women's Store
431,Dda Flat,South District,110017,77.22153699999997,28.52614999999998,3,Indian Restaurant,Bar,Clothing Store,Shopping Mall,Lounge
432,Dlf Ankur Vihar,South District,110049,77.21323099999998,28.552667999999993,3,Indian Restaurant,Bar,Furniture / Home Store,Coffee Shop,Mexican Restaurant
433,Sector 15 Rohini,North District,110089,77.127145,28.732456,3,Indian Restaurant,Burger Joint,BBQ Joint,Café,Fried Chicken Joint
434,Bhiwadi,,,77.21966000000003,28.63269399999996,3,Indian Restaurant,Café,Chinese Restaurant,Bar,Coffee Shop
435,Connaught Place,New Delhi District,110001,77.21969600000008,28.632734999999972,3,Indian Restaurant,Café,Chinese Restaurant,Bar,Coffee Shop
436,Delhi,New Delhi District,,77.21966000000003,28.63269399999996,3,Indian Restaurant,Café,Chinese Restaurant,Bar,Coffee Shop
437,Fatehpurberi,New Delhi District,,77.21966000000003,28.63269399999996,3,Indian Restaurant,Café,Chinese Restaurant,Bar,Coffee Shop
438,Kanjhawla,New Delhi District,,77.21966000000003,28.63269399999996,3,Indian Restaurant,Café,Chinese Restaurant,Bar,Coffee Shop
439,Kaushambi,,,77.21966000000003,28.63269399999996,3,Indian Restaurant,Café,Chinese Restaurant,Bar,Coffee Shop
440,Kishangarh Village New Delhi,New Delhi District,,77.21966000000003,28.63269399999996,3,Indian Restaurant,Café,Chinese Restaurant,Bar,Coffee Shop
441,Nanhey Park New Delhi,New Delhi District,,77.21966000000003,28.63269399999996,3,Indian Restaurant,Café,Chinese Restaurant,Bar,Coffee Shop
442,Rajiv Chowk,New Delhi District,110001,77.21927500000004,28.631605999999966,3,Indian Restaurant,Café,Chinese Restaurant,Bar,Coffee Shop
443,Sadulajab,New Delhi District,,77.21966000000003,28.63269399999996,3,Indian Restaurant,Café,Chinese Restaurant,Bar,Coffee Shop
444,Sector24,New Delhi District,,77.21966000000003,28.63269399999996,3,Indian Restaurant,Café,Chinese Restaurant,Bar,Coffee Shop
445,Sonepat,,,77.21966000000003,28.63269399999996,3,Indian Restaurant,Café,Chinese Restaurant,Bar,Coffee Shop
446,Telibara,New Delhi District,,77.21966000000003,28.63269399999996,3,Indian Restaurant,Café,Chinese Restaurant,Bar,Coffee Shop
447,Wea,,,77.21966000000003,28.63269399999996,3,Indian Restaurant,Café,Chinese Restaurant,Bar,Coffee Shop
448,Rishi Nagar,North West District,110034,77.127398,28.686199,3,Indian Restaurant,Café,Department Store,Men's Store,Cafeteria
449,Epdp Colony,South East Delhi District,110003,77.22449600000002,28.583716999999996,3,Indian Restaurant,Café,English Restaurant,Sandwich Place,Shopping Mall
450,Lodhi Colony,South East Delhi District,110003,77.22449600000002,28.583716999999996,3,Indian Restaurant,Café,English Restaurant,Sandwich Place,Shopping Mall
451,Vishal Enclave,West District,110027,77.11861900000001,28.650381999999997,3,Indian Restaurant,Café,Fast Food Restaurant,Asian Restaurant,Hotel
452,Gujranwala Town,West District,110018,77.08086,28.638975,3,Indian Restaurant,Café,Ice Cream Shop,Fast Food Restaurant,Football Stadium
453,Duggal Housing Complex,South District,110062,77.228906,28.512933,3,Indian Restaurant,Café,Plaza,Food Truck,Food Court
454,Sarvodaya Enclave,South District,110017,77.201102,28.537995999999996,3,Indian Restaurant,Café,Pub,Parsi Restaurant,Hotel
455,Kalu Sarai,South District,110016,77.199566,28.539458,3,Indian Restaurant,Café,Restaurant,Pub,Record Shop
456,Lajpat Nagar,South East Delhi District,110024,77.241561,28.576062000000004,3,Indian Restaurant,Cocktail Bar,Fast Food Restaurant,Market,Asian Restaurant
457,Central Secretariat,New Delhi District,110001,77.215843,28.615966000000007,3,Indian Restaurant,Cocktail Bar,Internet Cafe,Hotel,Bar
458,Gulmohar Enclave,South District,110049,77.21039199999998,28.558253999999998,3,Indian Restaurant,Coffee Shop,Chinese Restaurant,Bar,Hotel
459,Green Park,South District,110016,77.203604,28.55685600000001,3,Indian Restaurant,Coffee Shop,Chinese Restaurant,Hotel,Pizza Place
460,South Extension,South East Delhi District,110049,77.21990900000002,28.571260999999996,3,Indian Restaurant,Coffee Shop,Pizza Place,Chinese Restaurant,Shoe Store
461,Hailey Road,New Delhi District,110001,77.224403,28.624777999999996,3,Indian Restaurant,Coffee Shop,Restaurant,Historic Site,Lounge
462,Residential Floor Drayaganj,New Delhi District,110001,77.20741,28.610070999999998,3,Indian Restaurant,Department Store,Music Venue,National Park,Government Building
463,Residential Floorblocka Sector,New Delhi District,110001,77.20741,28.610070999999998,3,Indian Restaurant,Department Store,Music Venue,National Park,Government Building
464,Residential Floorpaschim Vihar,New Delhi District,110001,77.20741,28.610070999999998,3,Indian Restaurant,Department Store,Music Venue,National Park,Government Building
465,Residential Floorsector,New Delhi District,110001,77.20741,28.610070999999998,3,Indian Restaurant,Department Store,Music Venue,National Park,Government Building
466,Dwarka Sector 12,South West District,110078,77.042238,28.594671999999996,3,Indian Restaurant,Farmers Market,Market,Restaurant,Shopping Mall
467,Sector 12 Dwarka,South West District,110078,77.042238,28.594671999999996,3,Indian Restaurant,Farmers Market,Market,Restaurant,Shopping Mall
468,Sector 12 Dwarka New Delhi,South West District,110078,77.042238,28.594671999999996,3,Indian Restaurant,Farmers Market,Market,Restaurant,Shopping Mall
469,Lajpat Nagar Iii,South East Delhi District,110024,77.23910700000005,28.567256000000004,3,Indian Restaurant,Fast Food Restaurant,Market,Donut Shop,Bank
470,D Block Vikaspuri,West District,110018,77.0674,28.6336,3,Indian Restaurant,Flea Market,Discount Store,Restaurant,Event Space
471,Sector-14 Rohini,North West District,110085,77.13338699999998,28.714733999999996,3,Indian Restaurant,Food,Shopping Mall,Multiplex,Café
472,Tagore Garden Extension,West District,110027,77.112763,28.651729,3,Indian Restaurant,Garden,Park,Spa,Event Space
473,Punjabi Bagh,West District,110026,77.127874,28.667505000000002,3,Indian Restaurant,Garden Center,Donut Shop,Coffee Shop,Hookah Bar
474,West Enclave,West District,,77.074996,28.628375,3,Indian Restaurant,Gym / Fitness Center,Coffee Shop,Sandwich Place,Food Court
475,Block J Rajouri Garden Extension,West District,110027,77.114278,28.64008999999999,3,Indian Restaurant,Gym / Fitness Center,Food Truck,Salon / Barbershop,Bike Shop
476,Nizamuddin,South East Delhi District,110013,77.24433499999999,28.589526000000003,3,Indian Restaurant,Historic Site,Mughlai Restaurant,Garden,BBQ Joint
477,Mahipalpur Rangpuri Road,New Delhi District,110037,77.119477,28.540648999999995,3,Indian Restaurant,Hotel,American Restaurant,Thai Restaurant,Spa
478,Greater Kailash 1,South East Delhi District,110048,77.23610200000002,28.548714000000007,3,Indian Restaurant,Hotel,Coffee Shop,Café,Bistro
479,Daryaganj,Central District,110002,77.24107300000001,28.643996000000012,3,Indian Restaurant,Hotel,Hostel,Restaurant,Bank
480,Sector 15A,Central District,110054,77.223558,28.675372,3,Indian Restaurant,Hotel,Light Rail Station,Chinese Restaurant,Café
481,Panchsheel Park,South District,110017,77.21507599999998,28.543272,3,Indian Restaurant,Hotel,Lounge,Garden,Bank
482,Ghitorni Village South Delhi,New Delhi District,110030,77.145379,28.492572,3,Indian Restaurant,Hotel,Sporting Goods Shop,Furniture / Home Store,Sandwich Place
483,Kota House Entrance,New Delhi District,110011,77.225119,28.606087,3,Indian Restaurant,Hotel Bar,Japanese Restaurant,Restaurant,Snack Place
484,Fateh Nagar,West District,110018,77.101612,28.63085999999999,3,Indian Restaurant,Indian Sweet Shop,Punjabi Restaurant,Fried Chicken Joint,Food Court
485,Mahaveer Nagar Kotla Mubarakpur,South East Delhi District,110003,77.22603400000001,28.575093,3,Indian Restaurant,Italian Restaurant,Bakery,Café,Restaurant
486,Shreshtha Vihar,Shahdara District,110092,77.318579,28.658515000000005,3,Indian Restaurant,Italian Restaurant,Café,Event Space,Food Truck
487,Dilshad Garden,Shahdara District,110095,77.319274,28.682157,3,Indian Restaurant,Juice Bar,Market,Gym,Café
488,Dwarka Sector3,New Delhi District,110001,77.207186,28.636281999999998,3,Indian Restaurant,Light Rail Station,Fabric Shop,Fast Food Restaurant,Snack Place
489,Rama Park,West District,110059,77.034906,28.621244,3,Indian Restaurant,Light Rail Station,Fast Food Restaurant,Mobile Phone Shop,Pizza Place
490,Rama Park Block B,West District,110059,77.034595,28.622718,3,Indian Restaurant,Light Rail Station,Mobile Phone Shop,Pizza Place,Hotel
491,Hauz Khas,South District,110016,77.207748,28.549647999999998,3,Indian Restaurant,Other Nightlife,Market,Karaoke Bar,Burger Joint
492,I P Extension Patparganj,East District,110091,77.291734,28.612117,3,Indian Restaurant,Pharmacy,Department Store,Juice Bar,Event Space
493,Jasola,South East Delhi District,110025,77.29805899999998,28.54253599999999,3,Indian Restaurant,Pizza Place,Soccer Stadium,Market,Bakery
494,Munirka,New Delhi District,110067,77.174918,28.553441,3,Indian Restaurant,Playground,Furniture / Home Store,Flea Market,Entertainment Service
495,Munirka Flyover,New Delhi District,110067,77.174918,28.553441,3,Indian Restaurant,Playground,Furniture / Home Store,Flea Market,Entertainment Service
496,Munirka Kunj Main Road,New Delhi District,110067,77.174918,28.553441,3,Indian Restaurant,Playground,Furniture / Home Store,Flea Market,Entertainment Service
497,Munirka Marg,New Delhi District,110067,77.174918,28.553441,3,Indian Restaurant,Playground,Furniture / Home Store,Flea Market,Entertainment Service
498,Munirka Vihar,New Delhi District,110067,77.174918,28.553441,3,Indian Restaurant,Playground,Furniture / Home Store,Flea Market,Entertainment Service
499,Dwarka Sector 12 Pocket 4,South West District,110078,77.043795,28.595862000000004,3,Indian Restaurant,Restaurant,Farmers Market,Market,Shopping Mall
500,Khirki Extension,South District,110017,77.217764,28.532780999999996,3,Indian Restaurant,Shopping Mall,Burger Joint,Clothing Store,Chinese Restaurant
501,Nirman Vihar,East District,110092,77.287782,28.635381999999996,3,Indian Restaurant,Shopping Mall,Light Rail Station,Pizza Place,Café
502,Sarojini Nagar,South District,110023,77.19575699999999,28.57568800000001,3,Indian Restaurant,Shopping Mall,Women's Store,Market,Pizza Place
503,Safdarjung,South District,110029,77.194877,28.565740999999996,3,Indian Restaurant,Snack Place,Department Store,Nightclub,Fast Food Restaurant
504,Safdarjung Enclave,South District,110029,77.194877,28.565740999999996,3,Indian Restaurant,Snack Place,Department Store,Nightclub,Fast Food Restaurant
505,Chandni Chowk,Central District,110006,77.23364500000001,28.65515900000001,3,Indian Restaurant,Snack Place,Market,Dessert Shop,Hotel
506,Duggal Colony,South District,110062,77.230325,28.510371,3,Indian Restaurant,Trail,Chinese Restaurant,Electronics Store,Event Space
507,Sarai Rohilla,Central District,110005,77.182898,28.66302,3,Indian Restaurant,Train Station,Fast Food Restaurant,Business Service,Event Space
508,Karampura,West District,110015,77.147423,28.664786,3,Indian Restaurant,Vegetarian / Vegan Restaurant,Moving Target,Italian Restaurant,Fabric Shop
509,Karampura West,West District,110015,77.147423,28.664786,3,Indian Restaurant,Vegetarian / Vegan Restaurant,Moving Target,Italian Restaurant,Fabric Shop
510,Kailash Hills,South East Delhi District,110065,77.24676899999999,28.554787,3,Indie Movie Theater,Hot Dog Joint,Coffee Shop,Fast Food Restaurant,Bar
511,Defence Colony,South East Delhi District,110024,77.23279499999997,28.573199,3,Italian Restaurant,Indian Restaurant,Bakery,Light Rail Station,Coffee Shop
512,Defence Colony Flyover,South East Delhi District,110024,77.23279499999997,28.573199,3,Italian Restaurant,Indian Restaurant,Bakery,Light Rail Station,Coffee Shop
513,Yamuna Road,Central District,110006,77.227706,28.671820000000004,3,Light Rail Station,Fast Food Restaurant,Lake,Hotel,Pizza Place
514,Gurudwara Road,South East Delhi District,110019,77.252121,28.540583,3,Market,Indian Restaurant,Coffee Shop,Fish Market,Ice Cream Shop
515,Cr Park Main Road,South East Delhi District,110019,77.247948,28.541606,3,Market,Indian Restaurant,Dim Sum Restaurant,Fast Food Restaurant,Fabric Shop
516,Chittaranjan Park,South East Delhi District,110019,77.24829899999999,28.538074999999996,3,Market,Pizza Place,Park,Coffee Shop,Café
517,Sector 7,South District,110017,77.227821,28.530248,3,Men's Store,Fast Food Restaurant,Yoga Studio,Fried Chicken Joint,Football Stadium
518,Meenakshi Garden,West District,110018,77.10362200000003,28.639439000000007,3,Multiplex,Coffee Shop,Fast Food Restaurant,Shopping Mall,Donut Shop
519,Sector B,South District,110070,77.164599,28.522471,3,Nightclub,Bed & Breakfast,Arcade,Café,Yoga Studio
520,Sector-B Vasant Kunj,South District,110070,77.164599,28.522471,3,Nightclub,Bed & Breakfast,Arcade,Café,Yoga Studio
521,Sectorb Vasant Kunj,South District,110070,77.164599,28.522471,3,Nightclub,Bed & Breakfast,Arcade,Café,Yoga Studio
522,Kapas Hera Estate,New Delhi District,110021,77.19813699999999,28.594804000000007,3,Nightclub,Indian Restaurant,Hotel,Smoke Shop,Bus Station
523,Kapas Hera Extension,New Delhi District,110021,77.19813699999999,28.594804000000007,3,Nightclub,Indian Restaurant,Hotel,Smoke Shop,Bus Station
524,Patel Nagar,West District,110008,77.163834,28.652637,3,Park,Gym / Fitness Center,Indian Restaurant,Sporting Goods Shop,Hotel
525,South Patel Nagar,West District,110008,77.163834,28.652637,3,Park,Gym / Fitness Center,Indian Restaurant,Sporting Goods Shop,Hotel
526,Raja Puri,North District,110009,77.183525,28.709453000000003,3,Park,Indian Restaurant,Chinese Restaurant,Bus Station,Event Space
527,Lodhi Road Quarters,South East Delhi District,110003,77.22837600000001,28.587623000000004,3,Performing Arts Venue,Theater,Pedestrian Plaza,Flea Market,Restaurant
528,Swasthya Vihar,East District,110092,77.28942099999999,28.640829000000004,3,Pizza Place,Arcade,Food Court,Gift Shop,Café
529,Sector 6,New Delhi District,110021,77.167392,28.579063,3,Pizza Place,BBQ Joint,Café,French Restaurant,Food Truck
530,Pocket 9 Sector C,South District,110070,77.143912,28.539503000000003,3,Pizza Place,BBQ Joint,Gastropub,Spa,Café
531,Geeta Colony,Shahdara District,110031,77.275947,28.652544,3,Pizza Place,Bakery,Fried Chicken Joint,Football Stadium,Food Truck
532,Shalimar Bagh,North District,110088,77.166944,28.708724,3,Pizza Place,Bakery,Indian Restaurant,Hotel Bar,Football Stadium
533,Krishan Kunj,North East District,110053,77.278916,28.700958,3,Pizza Place,Bank,Fried Chicken Joint,Football Stadium,Food Truck
534,Panchsheel Vihar,South District,110017,77.222077,28.534382999999995,3,Pizza Place,Burger Joint,Burmese Restaurant,Men's Store,Grocery Store
535,Sector 12 Dwarka Pocket 2,South West District,110078,77.04788099999999,28.595479000000008,3,Pizza Place,Café,Bank,Indian Restaurant,Cocktail Bar
536,Shanti Niketan,New Delhi District,110021,77.168906,28.576494000000004,3,Pizza Place,Café,Convenience Store,Gourmet Shop,Bakery
537,Sector 12 Dwarka Pocket 3,South West District,110078,77.04682000000001,28.595862000000007,3,Pizza Place,Café,Department Store,Indian Restaurant,Fast Food Restaurant
538,Ranjeet Nagar,West District,110008,77.169485,28.64345,3,Pizza Place,Café,Donut Shop,Coffee Shop,Metro Station
539,Ip Extension,East District,110092,77.302631,28.629336999999996,3,Pizza Place,Café,Hotel,Dessert Shop,Food
540,Link Road Ip Extension,East District,110092,77.302631,28.629336999999996,3,Pizza Place,Café,Hotel,Dessert Shop,Food
541,Anand Niketan,New Delhi District,110021,77.164595,28.579845,3,Pizza Place,Café,Hotel,University,Food Truck
542,Sheikh Sarai,South District,110017,77.221134,28.536347000000003,3,Pizza Place,Café,Indian Restaurant,Park,Burger Joint
543,Sheikh Sarai Inner Lane,South District,110017,77.221134,28.536347000000003,3,Pizza Place,Café,Indian Restaurant,Park,Burger Joint
544,Saraswati Vihar,North West District,110034,77.12461,28.696815000000004,3,Pizza Place,Café,Park,Bakery,Lake
545,4 Sector 4 Road,New Delhi District,110021,77.170562,28.578168,3,Pizza Place,Coffee Shop,Multiplex,South Indian Restaurant,Department Store
546,Saket,South District,110017,77.206773,28.52384799999999,3,Pizza Place,Convenience Store,Hotel,Lounge,Café
547,Sfs Flats Saket,South District,110017,77.206773,28.52384799999999,3,Pizza Place,Convenience Store,Hotel,Lounge,Café
548,New Pragatesheel Apartment,East District,110096,77.320745,28.600928,3,Pizza Place,Convenience Store,Market,Stadium,Event Space
549,Vasundhara Enclave,East District,110096,77.321231,28.60126,3,Pizza Place,Convenience Store,Market,Stadium,Event Space
550,Mayur Vihar I,East District,110091,77.294371,28.598894,3,Pizza Place,Department Store,Market,Shopping Mall,Deli / Bodega
551,Mayur Vihar Phase 1,East District,110091,77.294371,28.598894,3,Pizza Place,Department Store,Market,Shopping Mall,Deli / Bodega
552,Masoodpur,New Delhi District,110070,77.154162,28.526909999999997,3,Pizza Place,Dessert Shop,Fast Food Restaurant,Spa,Café
553,East Patel Nagar,West District,110005,77.17400099999999,28.647715,3,Pizza Place,Donut Shop,Chinese Restaurant,Gym,Coffee Shop
554,Kapashera,New Delhi District,110097,77.076869,28.527669,3,Pizza Place,Entertainment Service,Food Truck,Food Court,Food & Drink Shop
555,Krishna Nagar,Shahdara District,110051,77.283538,28.65846,3,Pizza Place,Fast Food Restaurant,Gym,French Restaurant,Food Truck
556,New Krishna Nagar,Shahdara District,110051,77.283538,28.65846,3,Pizza Place,Fast Food Restaurant,Gym,French Restaurant,Food Truck
557,Kg 2 Road,West District,110018,77.078407,28.635922,3,Pizza Place,Fast Food Restaurant,Ice Cream Shop,Food Truck,Women's Store
558,Sector 10,North District,110085,77.114447,28.725049000000002,3,Pizza Place,Fast Food Restaurant,Shopping Mall,Asian Restaurant,Theme Park
559,6 Sector 13 Main Road,North District,110085,77.130988,28.716626,3,Pizza Place,Food,Shopping Mall,Café,Dessert Shop
560,Malka Ganj,Central District,110007,77.205485,28.675838,3,Pizza Place,Grocery Store,Flea Market,Sandwich Place,Indian Restaurant
561,Ashirwad,West District,110059,77.058429,28.622128,3,Pizza Place,Health & Beauty Service,Train Station,Astrologer,Mobile Phone Shop
562,Sector 22 Dwarka,New Delhi District,110077,77.059501,28.560631,3,Pizza Place,Hotel,Café,Shopping Mall,Department Store
563,Shastri Nagar,Central District,110052,77.179699,28.673383,3,Pizza Place,Hotel,Light Rail Station,Shopping Mall,Deli / Bodega
564,Sector-8 Rohini,North West District,110085,77.124575,28.703194999999997,3,Pizza Place,Indian Restaurant,Burger Joint,Fast Food Restaurant,Chinese Restaurant
565,Nawada Uttam Nagar,West District,110059,77.056782,28.618535000000005,3,Pizza Place,Indian Restaurant,Mobile Phone Shop,Astrologer,Train Station
566,Param Puri,West District,110059,77.054646,28.618947999999996,3,Pizza Place,Indian Restaurant,Mobile Phone Shop,Astrologer,Train Station
567,Rajapuri East Uttam Nagar,West District,110059,77.056782,28.618535000000005,3,Pizza Place,Indian Restaurant,Mobile Phone Shop,Astrologer,Train Station
568,Residential Flat Uttam Nagar,West District,110059,77.056782,28.618535000000005,3,Pizza Place,Indian Restaurant,Mobile Phone Shop,Astrologer,Train Station
569,Residential Floor Uttam Nagar,West District,110059,77.056782,28.618535000000005,3,Pizza Place,Indian Restaurant,Mobile Phone Shop,Astrologer,Train Station
570,Residential House Uttam Nagar,West District,110059,77.056782,28.618535000000005,3,Pizza Place,Indian Restaurant,Mobile Phone Shop,Astrologer,Train Station
571,Uttam Nagar,West District,110059,77.056782,28.618535000000005,3,Pizza Place,Indian Restaurant,Mobile Phone Shop,Astrologer,Train Station
572,Uttam Nagar Nanhey Park,West District,110059,77.056782,28.618535000000005,3,Pizza Place,Indian Restaurant,Mobile Phone Shop,Astrologer,Train Station
573,Uttam Nagar West,West District,110059,77.056782,28.618535000000005,3,Pizza Place,Indian Restaurant,Mobile Phone Shop,Astrologer,Train Station
574,Kotla Mubarakpur,South East Delhi District,110003,77.223323,28.573136,3,Pizza Place,Indian Restaurant,Shoe Store,Coffee Shop,Entertainment Service
575,Masjid Moth,South East Delhi District,110048,77.234227,28.541008,3,Pizza Place,Italian Restaurant,Coffee Shop,Café,Event Space
576,Masjid Moth Phase 2,South East Delhi District,110048,77.233534,28.540533,3,Pizza Place,Italian Restaurant,Coffee Shop,Café,Event Space
577,Dwarka Sec 23,South West District,110077,77.055135,28.566949,3,Pizza Place,Italian Restaurant,Farmers Market,Shopping Mall,Department Store
578,Dwarka Mor,South West District,110059,77.031514,28.618973,3,Pizza Place,Light Rail Station,Fast Food Restaurant,Indian Restaurant,Hotel
579,Dwarka More,South West District,110059,77.031514,28.618973,3,Pizza Place,Light Rail Station,Fast Food Restaurant,Indian Restaurant,Hotel
580,Sector 11,North West District,110085,77.109005,28.73339,3,Pizza Place,Multiplex,Photography Studio,Deli / Bodega,Fabric Shop
581,Sector 11 Rohini,North West District,110085,77.109005,28.73339,3,Pizza Place,Multiplex,Photography Studio,Deli / Bodega,Fabric Shop
582,Dwarka Sec3,New Delhi District,110077,77.055066,28.56448,3,Pizza Place,Park,Bed & Breakfast,Shopping Mall,Dessert Shop
583,Dwarka Sector 23 Pocket 1,New Delhi District,110077,77.055066,28.56448,3,Pizza Place,Park,Bed & Breakfast,Shopping Mall,Dessert Shop
584,Sector 23 Dwarka,New Delhi District,110077,77.055066,28.56448,3,Pizza Place,Park,Bed & Breakfast,Shopping Mall,Dessert Shop
585,Derawal Nagar,North District,110009,77.190193,28.699642,3,Pizza Place,Snack Place,Bakery,Shopping Mall,Event Space
586,Jangpura Extension,South East Delhi District,110014,77.24240299999998,28.581218999999994,3,Sandwich Place,Fast Food Restaurant,Chinese Restaurant,Indian Restaurant,Hotel
587,Budh Nagar,New Delhi District,110012,77.142724,28.635105,3,Sandwich Place,Multiplex,Arcade,Fast Food Restaurant,Yoga Studio
588,Delhi Cantt,New Delhi District,110010,77.13247,28.596475,3,Shopping Mall,Café,Indian Restaurant,Coffee Shop,Food Truck
589,Experion Heartsong,New Delhi District,110010,77.13247,28.596475,3,Shopping Mall,Café,Indian Restaurant,Coffee Shop,Food Truck
590,Ferozshah Road,New Delhi District,110010,77.132191,28.597113,3,Shopping Mall,Café,Indian Restaurant,Coffee Shop,Food Truck
591,Nathupur Road,New Delhi District,110010,77.132191,28.597113,3,Shopping Mall,Café,Indian Restaurant,Coffee Shop,Food Truck
592,Sirifort Road,New Delhi District,110010,77.132191,28.597113,3,Shopping Mall,Café,Indian Restaurant,Coffee Shop,Food Truck
593,Netaji Subhash Place,North West District,110034,77.14947699999999,28.692377000000008,3,Shopping Mall,Indian Restaurant,Coffee Shop,Fast Food Restaurant,Pizza Place
594,Desh Bandhu Gupta Marg,Central District,110005,77.194249,28.652156999999995,3,Snack Place,Indian Restaurant,Food & Drink Shop,Asian Restaurant,Coffee Shop
595,Okhla Vihar,South East Delhi District,110025,77.290006,28.554818,3,Tea Room,Café,Bengali Restaurant,Gym,Food Truck
596,Gulmohar Park,South District,110049,77.213521,28.556303000000007,3,Theater,Indian Restaurant,Music Venue,Park,Spanish Restaurant
597,Neb Sarai,South District,110062,77.198864,28.505609000000003,3,Tour Provider,Fast Food Restaurant,Lounge,Yoga Studio,Event Space
598,Mayur Vihar Phase 2,East District,110091,77.29783399999998,28.618247,3,Wings Joint,Garden,Sandwich Place,Café,Bank
599,Shivaji Marg,West District,110015,77.152738,28.662335,3,Women's Store,Café,Indian Restaurant,Train Station,Football Stadium
600,E Block Preet Vihar,East District,110092,77.29774299999998,28.638923000000002,3,Yoga Studio,BBQ Joint,Light Rail Station,Fast Food Restaurant,Shop & Service
601,Pocket 7 Sector D,South District,110070,77.146218,28.529379,4,Art Gallery,Hotel,Soccer Stadium,Bed & Breakfast,Yoga Studio
602,Sector 21 Dwarka,New Delhi District,110077,77.067198,28.55764,4,Café,Hotel,Coffee Shop,Bar,Yoga Studio
603,Sector 21 Dwarka New Delhi,New Delhi District,110077,77.067198,28.55764,4,Café,Hotel,Coffee Shop,Bar,Yoga Studio
604,Surajmal Vihar,Shahdara District,110092,77.305985,28.661599000000002,4,Café,Hotel,Park,Multiplex,Bar
605,Dda Flats,New Delhi District,110058,77.107619,28.606942,4,Coffee Shop,Yoga Studio,Event Space,Football Stadium,Food Truck
606,New Ashok Nagar,East District,110096,77.30742,28.594022,4,Coffee Shop,Yoga Studio,Event Space,Football Stadium,Food Truck
607,Sagarpur Palam Road,New Delhi District,110046,77.107483,28.604898,4,Coffee Shop,Yoga Studio,Event Space,Football Stadium,Food Truck
608,Gazipur,East District,110096,77.318143,28.633403,4,Department Store,Hotel,Yoga Studio,Event Space,Football Stadium
609,Mansarovar Garden,West District,110015,77.133346,28.642099,4,Furniture / Home Store,Hotel,Yoga Studio,Event Space,Food Truck
610,Mansarover Garden,West District,110015,77.133346,28.642099,4,Furniture / Home Store,Hotel,Yoga Studio,Event Space,Food Truck
611,Block Ld Dakshini Pitampura,North West District,110034,77.120353,28.69176,4,Hotel,Bar,Yoga Studio,Fabric Shop,Football Stadium
612,Cd Block Dakshini Pitampura,North West District,110034,77.120353,28.69176,4,Hotel,Bar,Yoga Studio,Fabric Shop,Football Stadium
613,Pitampura,North West District,110034,77.120353,28.69176,4,Hotel,Bar,Yoga Studio,Fabric Shop,Football Stadium
614,Poorvi Pitampura,North West District,110034,77.120353,28.69176,4,Hotel,Bar,Yoga Studio,Fabric Shop,Football Stadium
615,Uttari Pitampura,North West District,110034,77.120353,28.69176,4,Hotel,Bar,Yoga Studio,Fabric Shop,Football Stadium
616,Jor Bagh,South East Delhi District,110003,77.21383000000002,28.588308,4,Hotel,Bookstore,Racetrack,Historic Site,Metro Station
617,Maharani Bagh,South East Delhi District,110065,77.26529600000002,28.573232999999995,4,Hotel,Café,Sculpture Garden,Neighborhood,Gym
618,Sultanpur Extension,South District,110030,77.164988,28.496868,4,Hotel,Coffee Shop,Farm,Luggage Store,Yoga Studio
619,Block Ap Poorvi Pitampura,North West District,110034,77.140724,28.703266,4,Hotel,Coffee Shop,Spa,Bakery,Yoga Studio
620,Sector 10 Dwarka,South West District,110075,77.057824,28.583059999999993,4,Hotel,Electronics Store,Asian Restaurant,Light Rail Station,Shopping Mall
621,New Kondli,East District,110096,77.330756,28.606115,4,Hotel,Food,Market,Yoga Studio,Event Space
622,D B Gupta Road,Shahdara District,110032,77.301846,28.665973000000005,4,Hotel,Indian Restaurant,Asian Restaurant,BBQ Joint,Café
623,Mahipalpur,New Delhi District,110037,77.129485,28.545272000000004,4,Hotel,Indian Restaurant,Bed & Breakfast,Road,Business Service
624,Mahipalpur Extension,New Delhi District,110037,77.129485,28.545272000000004,4,Hotel,Indian Restaurant,Bed & Breakfast,Road,Business Service
625,Aerocity,New Delhi District,110037,77.121662,28.552015999999988,4,Hotel,Indian Restaurant,Coffee Shop,Buffet,Shopping Mall
626,A1 Block Paschim Vihar Delhi,West District,110063,77.093265,28.669306,4,Hotel,Indian Restaurant,Food Truck,Coffee Shop,Event Space
627,Paschim Vihar,West District,110063,77.093265,28.669306,4,Hotel,Indian Restaurant,Food Truck,Coffee Shop,Event Space
628,Paschim Vihar Main,West District,110063,77.093265,28.669306,4,Hotel,Indian Restaurant,Food Truck,Coffee Shop,Event Space
629,Westend,West District,110087,77.092747,28.671355999999996,4,Hotel,Indian Restaurant,Food Truck,Coffee Shop,Event Space
630,Dcm School Marg,West District,110008,77.164196,28.649656,4,Hotel,Indian Restaurant,Park,Electronics Store,Event Space
631,D Block Lane,New Delhi District,110028,77.139963,28.627061000000005,4,Hotel,Pizza Place,Café,Indian Restaurant,Hotel Bar
632,Dwarka Sector 19,South West District,110075,77.053127,28.576972000000005,4,Hotel,Shopping Mall,Electronics Store,Asian Restaurant,Flea Market
633,Sector 19,South West District,110075,77.052768,28.577133,4,Hotel,Shopping Mall,Electronics Store,Asian Restaurant,Flea Market
634,Sector 19 Dwarka,South West District,110075,77.053127,28.576972000000005,4,Hotel,Shopping Mall,Electronics Store,Asian Restaurant,Flea Market
635,Dwarka Road,South West District,110077,77.042551,28.559388,4,Hotel,Yoga Studio,Event Space,Football Stadium,Food Truck
636,Road Number 1,South District,110030,77.128902,28.479352,4,Hotel,Yoga Studio,Furniture / Home Store,Light Rail Station,Event Space
637,Block Uu Uttari Pitampura,North West District,110034,77.13941,28.705857,4,Indian Restaurant,Hotel,Coffee Shop,Spa,Event Space
638,Dwarka Flyover,South West District,110075,77.079503,28.592907,4,Indian Restaurant,Hotel,Science Museum,Farm,Entertainment Service
639,Sandesh Vihar,North West District,110034,77.141998,28.691363,4,Plaza,Hotel,Yoga Studio,Entertainment Service,Food Truck
